<?xml version="1.0" encoding="UTF-8"?>
<gpx version="1.1" creator="Pyrolos" xmlns="http://www.topografix.com/GPX/1/1">
  <metadata><name>Pyrolos - Itinéraire gourmand par Lasseube et Lacommande</name></metadata>
  <trk>
    <name>Pyrolos - Itinéraire gourmand par Lasseube et Lacommande</name>
    <trkseg>
      <trkpt lat="43.306029" lon="-0.403461"/>
      <trkpt lat="43.305872" lon="-0.403167"/>
      <trkpt lat="43.305703" lon="-0.402847"/>
      <trkpt lat="43.305600" lon="-0.402665"/>
      <trkpt lat="43.305506" lon="-0.402498"/>
      <trkpt lat="43.305395" lon="-0.402300"/>
      <trkpt lat="43.305324" lon="-0.402169"/>
      <trkpt lat="43.305262" lon="-0.402101"/>
      <trkpt lat="43.305164" lon="-0.401992"/>
      <trkpt lat="43.305075" lon="-0.401918"/>
      <trkpt lat="43.305012" lon="-0.401866"/>
      <trkpt lat="43.304933" lon="-0.401861"/>
      <trkpt lat="43.304885" lon="-0.401840"/>
      <trkpt lat="43.304841" lon="-0.401806"/>
      <trkpt lat="43.304674" lon="-0.401823"/>
      <trkpt lat="43.304492" lon="-0.401873"/>
      <trkpt lat="43.304460" lon="-0.401881"/>
      <trkpt lat="43.304306" lon="-0.402084"/>
      <trkpt lat="43.304174" lon="-0.402251"/>
      <trkpt lat="43.303867" lon="-0.402810"/>
      <trkpt lat="43.303685" lon="-0.403194"/>
      <trkpt lat="43.303297" lon="-0.403934"/>
      <trkpt lat="43.303144" lon="-0.404275"/>
      <trkpt lat="43.302894" lon="-0.404841"/>
      <trkpt lat="43.302586" lon="-0.405649"/>
      <trkpt lat="43.301973" lon="-0.407383"/>
      <trkpt lat="43.301353" lon="-0.408971"/>
      <trkpt lat="43.301311" lon="-0.409182"/>
      <trkpt lat="43.301263" lon="-0.409428"/>
      <trkpt lat="43.301247" lon="-0.409566"/>
      <trkpt lat="43.301240" lon="-0.409627"/>
      <trkpt lat="43.301284" lon="-0.409744"/>
      <trkpt lat="43.301299" lon="-0.409861"/>
      <trkpt lat="43.301291" lon="-0.409979"/>
      <trkpt lat="43.301264" lon="-0.410079"/>
      <trkpt lat="43.301220" lon="-0.410167"/>
      <trkpt lat="43.301161" lon="-0.410238"/>
      <trkpt lat="43.301090" lon="-0.410287"/>
      <trkpt lat="43.301013" lon="-0.410310"/>
      <trkpt lat="43.300933" lon="-0.410305"/>
      <trkpt lat="43.300844" lon="-0.410264"/>
      <trkpt lat="43.300716" lon="-0.410316"/>
      <trkpt lat="43.300299" lon="-0.410546"/>
      <trkpt lat="43.300270" lon="-0.410568"/>
      <trkpt lat="43.300184" lon="-0.410623"/>
      <trkpt lat="43.299923" lon="-0.410734"/>
      <trkpt lat="43.299587" lon="-0.410831"/>
      <trkpt lat="43.299129" lon="-0.410995"/>
      <trkpt lat="43.298659" lon="-0.411278"/>
      <trkpt lat="43.298182" lon="-0.411737"/>
      <trkpt lat="43.297948" lon="-0.412048"/>
      <trkpt lat="43.297757" lon="-0.412323"/>
      <trkpt lat="43.297518" lon="-0.412667"/>
      <trkpt lat="43.297497" lon="-0.412696"/>
      <trkpt lat="43.297038" lon="-0.413336"/>
      <trkpt lat="43.296507" lon="-0.414121"/>
      <trkpt lat="43.296395" lon="-0.414285"/>
      <trkpt lat="43.296216" lon="-0.414688"/>
      <trkpt lat="43.296188" lon="-0.414775"/>
      <trkpt lat="43.296167" lon="-0.414839"/>
      <trkpt lat="43.296171" lon="-0.414986"/>
      <trkpt lat="43.296126" lon="-0.415118"/>
      <trkpt lat="43.296113" lon="-0.415288"/>
      <trkpt lat="43.296150" lon="-0.415786"/>
      <trkpt lat="43.296248" lon="-0.416425"/>
      <trkpt lat="43.296348" lon="-0.416788"/>
      <trkpt lat="43.296452" lon="-0.417050"/>
      <trkpt lat="43.296600" lon="-0.417357"/>
      <trkpt lat="43.296816" lon="-0.417698"/>
      <trkpt lat="43.297781" lon="-0.418778"/>
      <trkpt lat="43.297942" lon="-0.419002"/>
      <trkpt lat="43.298169" lon="-0.419354"/>
      <trkpt lat="43.298379" lon="-0.419745"/>
      <trkpt lat="43.298470" lon="-0.419925"/>
      <trkpt lat="43.298540" lon="-0.420091"/>
      <trkpt lat="43.298705" lon="-0.420569"/>
      <trkpt lat="43.299046" lon="-0.421679"/>
      <trkpt lat="43.299213" lon="-0.422129"/>
      <trkpt lat="43.299367" lon="-0.422492"/>
      <trkpt lat="43.299719" lon="-0.423273"/>
      <trkpt lat="43.299898" lon="-0.423773"/>
      <trkpt lat="43.300190" lon="-0.424731"/>
      <trkpt lat="43.300337" lon="-0.425260"/>
      <trkpt lat="43.300718" lon="-0.427131"/>
      <trkpt lat="43.300804" lon="-0.427456"/>
      <trkpt lat="43.300899" lon="-0.427746"/>
      <trkpt lat="43.301430" lon="-0.429126"/>
      <trkpt lat="43.301562" lon="-0.429534"/>
      <trkpt lat="43.301705" lon="-0.430141"/>
      <trkpt lat="43.301831" lon="-0.430828"/>
      <trkpt lat="43.302090" lon="-0.431770"/>
      <trkpt lat="43.302723" lon="-0.433706"/>
      <trkpt lat="43.302860" lon="-0.434091"/>
      <trkpt lat="43.303091" lon="-0.434632"/>
      <trkpt lat="43.303827" lon="-0.436217"/>
      <trkpt lat="43.303962" lon="-0.436560"/>
      <trkpt lat="43.304359" lon="-0.437691"/>
      <trkpt lat="43.304533" lon="-0.438109"/>
      <trkpt lat="43.305092" lon="-0.439170"/>
      <trkpt lat="43.305220" lon="-0.439379"/>
      <trkpt lat="43.306742" lon="-0.441846"/>
      <trkpt lat="43.306951" lon="-0.442248"/>
      <trkpt lat="43.307143" lon="-0.442676"/>
      <trkpt lat="43.307295" lon="-0.443129"/>
      <trkpt lat="43.307418" lon="-0.443567"/>
      <trkpt lat="43.307698" lon="-0.444976"/>
      <trkpt lat="43.307841" lon="-0.445481"/>
      <trkpt lat="43.308039" lon="-0.446085"/>
      <trkpt lat="43.308282" lon="-0.446645"/>
      <trkpt lat="43.308475" lon="-0.446968"/>
      <trkpt lat="43.308544" lon="-0.447125"/>
      <trkpt lat="43.308616" lon="-0.447290"/>
      <trkpt lat="43.308650" lon="-0.447367"/>
      <trkpt lat="43.308725" lon="-0.447549"/>
      <trkpt lat="43.308793" lon="-0.447566"/>
      <trkpt lat="43.308851" lon="-0.447621"/>
      <trkpt lat="43.308886" lon="-0.447703"/>
      <trkpt lat="43.308894" lon="-0.447798"/>
      <trkpt lat="43.309008" lon="-0.447925"/>
      <trkpt lat="43.309137" lon="-0.448110"/>
      <trkpt lat="43.309666" lon="-0.448637"/>
      <trkpt lat="43.309736" lon="-0.448700"/>
      <trkpt lat="43.309860" lon="-0.448819"/>
      <trkpt lat="43.310167" lon="-0.449083"/>
      <trkpt lat="43.310629" lon="-0.449402"/>
      <trkpt lat="43.311014" lon="-0.449708"/>
      <trkpt lat="43.311534" lon="-0.450110"/>
      <trkpt lat="43.311975" lon="-0.450489"/>
      <trkpt lat="43.312294" lon="-0.450805"/>
      <trkpt lat="43.312623" lon="-0.451180"/>
      <trkpt lat="43.312853" lon="-0.451453"/>
      <trkpt lat="43.313123" lon="-0.451799"/>
      <trkpt lat="43.313425" lon="-0.452219"/>
      <trkpt lat="43.313565" lon="-0.452449"/>
      <trkpt lat="43.313675" lon="-0.452662"/>
      <trkpt lat="43.313921" lon="-0.453230"/>
      <trkpt lat="43.314138" lon="-0.453803"/>
      <trkpt lat="43.314310" lon="-0.454266"/>
      <trkpt lat="43.314513" lon="-0.454834"/>
      <trkpt lat="43.314567" lon="-0.454986"/>
      <trkpt lat="43.314612" lon="-0.455108"/>
      <trkpt lat="43.315000" lon="-0.456153"/>
      <trkpt lat="43.315076" lon="-0.456252"/>
      <trkpt lat="43.315316" lon="-0.456863"/>
      <trkpt lat="43.315447" lon="-0.457103"/>
      <trkpt lat="43.315533" lon="-0.457137"/>
      <trkpt lat="43.315615" lon="-0.457239"/>
      <trkpt lat="43.315651" lon="-0.457381"/>
      <trkpt lat="43.315632" lon="-0.457531"/>
      <trkpt lat="43.315682" lon="-0.457781"/>
      <trkpt lat="43.316192" lon="-0.459422"/>
      <trkpt lat="43.316365" lon="-0.460026"/>
      <trkpt lat="43.316500" lon="-0.460457"/>
      <trkpt lat="43.316602" lon="-0.460781"/>
      <trkpt lat="43.316681" lon="-0.460996"/>
      <trkpt lat="43.316800" lon="-0.461263"/>
      <trkpt lat="43.316948" lon="-0.461574"/>
      <trkpt lat="43.317162" lon="-0.461948"/>
      <trkpt lat="43.317374" lon="-0.462254"/>
      <trkpt lat="43.317592" lon="-0.462568"/>
      <trkpt lat="43.317964" lon="-0.462986"/>
      <trkpt lat="43.317817" lon="-0.463275"/>
      <trkpt lat="43.317784" lon="-0.463341"/>
      <trkpt lat="43.317772" lon="-0.463415"/>
      <trkpt lat="43.317760" lon="-0.463497"/>
      <trkpt lat="43.317754" lon="-0.463670"/>
      <trkpt lat="43.317888" lon="-0.463885"/>
      <trkpt lat="43.318336" lon="-0.464414"/>
      <trkpt lat="43.318445" lon="-0.464583"/>
      <trkpt lat="43.318531" lon="-0.464773"/>
      <trkpt lat="43.318659" lon="-0.465201"/>
      <trkpt lat="43.318666" lon="-0.465227"/>
      <trkpt lat="43.318775" lon="-0.465512"/>
      <trkpt lat="43.319393" lon="-0.466675"/>
      <trkpt lat="43.319754" lon="-0.467547"/>
      <trkpt lat="43.319783" lon="-0.467662"/>
      <trkpt lat="43.319801" lon="-0.467749"/>
      <trkpt lat="43.319837" lon="-0.468009"/>
      <trkpt lat="43.319861" lon="-0.468280"/>
      <trkpt lat="43.319887" lon="-0.468469"/>
      <trkpt lat="43.319827" lon="-0.468491"/>
      <trkpt lat="43.319764" lon="-0.468510"/>
      <trkpt lat="43.319721" lon="-0.468522"/>
      <trkpt lat="43.319629" lon="-0.468621"/>
      <trkpt lat="43.319563" lon="-0.468735"/>
      <trkpt lat="43.319522" lon="-0.468837"/>
      <trkpt lat="43.319482" lon="-0.468966"/>
      <trkpt lat="43.319350" lon="-0.469481"/>
      <trkpt lat="43.319257" lon="-0.469817"/>
      <trkpt lat="43.319137" lon="-0.470253"/>
      <trkpt lat="43.319077" lon="-0.470396"/>
      <trkpt lat="43.319015" lon="-0.470512"/>
      <trkpt lat="43.318954" lon="-0.470596"/>
      <trkpt lat="43.318685" lon="-0.470820"/>
      <trkpt lat="43.318603" lon="-0.470917"/>
      <trkpt lat="43.318513" lon="-0.471043"/>
      <trkpt lat="43.318464" lon="-0.471139"/>
      <trkpt lat="43.318426" lon="-0.471233"/>
      <trkpt lat="43.318399" lon="-0.471337"/>
      <trkpt lat="43.318375" lon="-0.471480"/>
      <trkpt lat="43.318309" lon="-0.472141"/>
      <trkpt lat="43.318303" lon="-0.472212"/>
      <trkpt lat="43.318298" lon="-0.472271"/>
      <trkpt lat="43.318274" lon="-0.472568"/>
      <trkpt lat="43.318255" lon="-0.472922"/>
      <trkpt lat="43.318252" lon="-0.473056"/>
      <trkpt lat="43.318244" lon="-0.473198"/>
      <trkpt lat="43.318233" lon="-0.473310"/>
      <trkpt lat="43.318217" lon="-0.473442"/>
      <trkpt lat="43.318191" lon="-0.473582"/>
      <trkpt lat="43.318147" lon="-0.473684"/>
      <trkpt lat="43.318093" lon="-0.473787"/>
      <trkpt lat="43.317754" lon="-0.474337"/>
      <trkpt lat="43.317605" lon="-0.474563"/>
      <trkpt lat="43.317477" lon="-0.474719"/>
      <trkpt lat="43.317348" lon="-0.474830"/>
      <trkpt lat="43.317118" lon="-0.475028"/>
      <trkpt lat="43.317095" lon="-0.475048"/>
      <trkpt lat="43.317077" lon="-0.475063"/>
      <trkpt lat="43.317007" lon="-0.475143"/>
      <trkpt lat="43.316847" lon="-0.475311"/>
      <trkpt lat="43.316798" lon="-0.475361"/>
      <trkpt lat="43.316750" lon="-0.475408"/>
      <trkpt lat="43.316694" lon="-0.475464"/>
      <trkpt lat="43.316478" lon="-0.475684"/>
      <trkpt lat="43.316408" lon="-0.475760"/>
      <trkpt lat="43.316301" lon="-0.475892"/>
      <trkpt lat="43.316033" lon="-0.476261"/>
      <trkpt lat="43.315858" lon="-0.476489"/>
      <trkpt lat="43.315825" lon="-0.476532"/>
      <trkpt lat="43.315711" lon="-0.476657"/>
      <trkpt lat="43.315620" lon="-0.476753"/>
      <trkpt lat="43.315536" lon="-0.476845"/>
      <trkpt lat="43.315191" lon="-0.477217"/>
      <trkpt lat="43.315180" lon="-0.477228"/>
      <trkpt lat="43.315044" lon="-0.477359"/>
      <trkpt lat="43.314794" lon="-0.477585"/>
      <trkpt lat="43.314667" lon="-0.477667"/>
      <trkpt lat="43.314548" lon="-0.477731"/>
      <trkpt lat="43.314423" lon="-0.477760"/>
      <trkpt lat="43.314322" lon="-0.477778"/>
      <trkpt lat="43.314295" lon="-0.477780"/>
      <trkpt lat="43.314207" lon="-0.477786"/>
      <trkpt lat="43.314111" lon="-0.477786"/>
      <trkpt lat="43.313568" lon="-0.477789"/>
      <trkpt lat="43.313322" lon="-0.477790"/>
      <trkpt lat="43.313209" lon="-0.477781"/>
      <trkpt lat="43.312991" lon="-0.477767"/>
      <trkpt lat="43.312872" lon="-0.477757"/>
      <trkpt lat="43.312675" lon="-0.477740"/>
      <trkpt lat="43.312643" lon="-0.477737"/>
      <trkpt lat="43.312607" lon="-0.477734"/>
      <trkpt lat="43.312167" lon="-0.477710"/>
      <trkpt lat="43.311833" lon="-0.477707"/>
      <trkpt lat="43.311622" lon="-0.477665"/>
      <trkpt lat="43.311430" lon="-0.477614"/>
      <trkpt lat="43.311292" lon="-0.477551"/>
      <trkpt lat="43.311207" lon="-0.477491"/>
      <trkpt lat="43.311147" lon="-0.477449"/>
      <trkpt lat="43.310890" lon="-0.477227"/>
      <trkpt lat="43.310472" lon="-0.476830"/>
      <trkpt lat="43.310454" lon="-0.476814"/>
      <trkpt lat="43.309931" lon="-0.476355"/>
      <trkpt lat="43.309704" lon="-0.476217"/>
      <trkpt lat="43.309310" lon="-0.476084"/>
      <trkpt lat="43.309157" lon="-0.476000"/>
      <trkpt lat="43.309066" lon="-0.475906"/>
      <trkpt lat="43.308887" lon="-0.475612"/>
      <trkpt lat="43.308810" lon="-0.475509"/>
      <trkpt lat="43.308735" lon="-0.475412"/>
      <trkpt lat="43.308611" lon="-0.475326"/>
      <trkpt lat="43.308508" lon="-0.475281"/>
      <trkpt lat="43.308083" lon="-0.475199"/>
      <trkpt lat="43.307936" lon="-0.475169"/>
      <trkpt lat="43.307860" lon="-0.475153"/>
      <trkpt lat="43.307823" lon="-0.475143"/>
      <trkpt lat="43.307623" lon="-0.475089"/>
      <trkpt lat="43.307401" lon="-0.475021"/>
      <trkpt lat="43.307242" lon="-0.474972"/>
      <trkpt lat="43.307174" lon="-0.474951"/>
      <trkpt lat="43.307091" lon="-0.474919"/>
      <trkpt lat="43.306955" lon="-0.474865"/>
      <trkpt lat="43.306805" lon="-0.474785"/>
      <trkpt lat="43.306627" lon="-0.474637"/>
      <trkpt lat="43.306440" lon="-0.474470"/>
      <trkpt lat="43.306398" lon="-0.474432"/>
      <trkpt lat="43.305964" lon="-0.473968"/>
      <trkpt lat="43.305824" lon="-0.473838"/>
      <trkpt lat="43.305567" lon="-0.473722"/>
      <trkpt lat="43.305376" lon="-0.473636"/>
      <trkpt lat="43.305287" lon="-0.473596"/>
      <trkpt lat="43.304996" lon="-0.473472"/>
      <trkpt lat="43.303863" lon="-0.472956"/>
      <trkpt lat="43.303780" lon="-0.472918"/>
      <trkpt lat="43.303165" lon="-0.472518"/>
      <trkpt lat="43.303121" lon="-0.472488"/>
      <trkpt lat="43.303105" lon="-0.472477"/>
      <trkpt lat="43.302540" lon="-0.472093"/>
      <trkpt lat="43.302215" lon="-0.471912"/>
      <trkpt lat="43.301728" lon="-0.471744"/>
      <trkpt lat="43.301518" lon="-0.471716"/>
      <trkpt lat="43.301406" lon="-0.471772"/>
      <trkpt lat="43.300665" lon="-0.472510"/>
      <trkpt lat="43.300470" lon="-0.472676"/>
      <trkpt lat="43.300214" lon="-0.472790"/>
      <trkpt lat="43.299186" lon="-0.473082"/>
      <trkpt lat="43.298582" lon="-0.473288"/>
      <trkpt lat="43.298307" lon="-0.473431"/>
      <trkpt lat="43.298233" lon="-0.473487"/>
      <trkpt lat="43.298141" lon="-0.473595"/>
      <trkpt lat="43.297965" lon="-0.473898"/>
      <trkpt lat="43.297820" lon="-0.474051"/>
      <trkpt lat="43.297656" lon="-0.474082"/>
      <trkpt lat="43.297562" lon="-0.474056"/>
      <trkpt lat="43.297479" lon="-0.473978"/>
      <trkpt lat="43.297319" lon="-0.473736"/>
      <trkpt lat="43.297234" lon="-0.473662"/>
      <trkpt lat="43.297153" lon="-0.473628"/>
      <trkpt lat="43.297040" lon="-0.473640"/>
      <trkpt lat="43.296858" lon="-0.473722"/>
      <trkpt lat="43.296550" lon="-0.473932"/>
      <trkpt lat="43.296346" lon="-0.474127"/>
      <trkpt lat="43.295959" lon="-0.474878"/>
      <trkpt lat="43.295839" lon="-0.475075"/>
      <trkpt lat="43.295800" lon="-0.475105"/>
      <trkpt lat="43.295732" lon="-0.475156"/>
      <trkpt lat="43.295639" lon="-0.475166"/>
      <trkpt lat="43.295462" lon="-0.474985"/>
      <trkpt lat="43.295334" lon="-0.474939"/>
      <trkpt lat="43.295193" lon="-0.474982"/>
      <trkpt lat="43.295051" lon="-0.475220"/>
      <trkpt lat="43.294805" lon="-0.475606"/>
      <trkpt lat="43.294528" lon="-0.475862"/>
      <trkpt lat="43.294366" lon="-0.476111"/>
      <trkpt lat="43.294240" lon="-0.476287"/>
      <trkpt lat="43.294079" lon="-0.476356"/>
      <trkpt lat="43.293960" lon="-0.476313"/>
      <trkpt lat="43.293821" lon="-0.475782"/>
      <trkpt lat="43.293733" lon="-0.475672"/>
      <trkpt lat="43.293650" lon="-0.475633"/>
      <trkpt lat="43.293549" lon="-0.475639"/>
      <trkpt lat="43.293451" lon="-0.475686"/>
      <trkpt lat="43.293342" lon="-0.476001"/>
      <trkpt lat="43.293283" lon="-0.476543"/>
      <trkpt lat="43.293267" lon="-0.476885"/>
      <trkpt lat="43.293323" lon="-0.477179"/>
      <trkpt lat="43.293453" lon="-0.477442"/>
      <trkpt lat="43.293641" lon="-0.477626"/>
      <trkpt lat="43.293800" lon="-0.477694"/>
      <trkpt lat="43.293999" lon="-0.477657"/>
      <trkpt lat="43.294231" lon="-0.477454"/>
      <trkpt lat="43.294371" lon="-0.477387"/>
      <trkpt lat="43.294463" lon="-0.477404"/>
      <trkpt lat="43.294566" lon="-0.477496"/>
      <trkpt lat="43.294607" lon="-0.477627"/>
      <trkpt lat="43.294593" lon="-0.477798"/>
      <trkpt lat="43.294468" lon="-0.477947"/>
      <trkpt lat="43.294130" lon="-0.478075"/>
      <trkpt lat="43.293847" lon="-0.478311"/>
      <trkpt lat="43.293333" lon="-0.478445"/>
      <trkpt lat="43.293131" lon="-0.478615"/>
      <trkpt lat="43.293041" lon="-0.478847"/>
      <trkpt lat="43.292798" lon="-0.479678"/>
      <trkpt lat="43.292683" lon="-0.480062"/>
      <trkpt lat="43.292561" lon="-0.480352"/>
      <trkpt lat="43.292188" lon="-0.480982"/>
      <trkpt lat="43.292066" lon="-0.481127"/>
      <trkpt lat="43.291954" lon="-0.481159"/>
      <trkpt lat="43.291829" lon="-0.481129"/>
      <trkpt lat="43.291702" lon="-0.480936"/>
      <trkpt lat="43.291327" lon="-0.479996"/>
      <trkpt lat="43.291222" lon="-0.479883"/>
      <trkpt lat="43.291088" lon="-0.479854"/>
      <trkpt lat="43.290959" lon="-0.479938"/>
      <trkpt lat="43.290869" lon="-0.480087"/>
      <trkpt lat="43.290794" lon="-0.480412"/>
      <trkpt lat="43.290610" lon="-0.480715"/>
      <trkpt lat="43.290360" lon="-0.481225"/>
      <trkpt lat="43.289944" lon="-0.482207"/>
      <trkpt lat="43.289799" lon="-0.482514"/>
      <trkpt lat="43.289548" lon="-0.482892"/>
      <trkpt lat="43.289381" lon="-0.483070"/>
      <trkpt lat="43.289201" lon="-0.483262"/>
      <trkpt lat="43.288875" lon="-0.483971"/>
      <trkpt lat="43.288791" lon="-0.484190"/>
      <trkpt lat="43.288763" lon="-0.484301"/>
      <trkpt lat="43.288750" lon="-0.484420"/>
      <trkpt lat="43.288760" lon="-0.484703"/>
      <trkpt lat="43.288787" lon="-0.484970"/>
      <trkpt lat="43.288838" lon="-0.485260"/>
      <trkpt lat="43.288901" lon="-0.485526"/>
      <trkpt lat="43.288998" lon="-0.485773"/>
      <trkpt lat="43.289129" lon="-0.486038"/>
      <trkpt lat="43.289675" lon="-0.486770"/>
      <trkpt lat="43.289743" lon="-0.486938"/>
      <trkpt lat="43.289791" lon="-0.487089"/>
      <trkpt lat="43.289799" lon="-0.487339"/>
      <trkpt lat="43.289668" lon="-0.488044"/>
      <trkpt lat="43.289648" lon="-0.488090"/>
      <trkpt lat="43.289572" lon="-0.488270"/>
      <trkpt lat="43.289483" lon="-0.488353"/>
      <trkpt lat="43.289394" lon="-0.488409"/>
      <trkpt lat="43.288534" lon="-0.488468"/>
      <trkpt lat="43.288402" lon="-0.488514"/>
      <trkpt lat="43.288236" lon="-0.488618"/>
      <trkpt lat="43.287855" lon="-0.489072"/>
      <trkpt lat="43.287835" lon="-0.489096"/>
      <trkpt lat="43.287778" lon="-0.489164"/>
      <trkpt lat="43.287667" lon="-0.489210"/>
      <trkpt lat="43.287550" lon="-0.489247"/>
      <trkpt lat="43.287426" lon="-0.489216"/>
      <trkpt lat="43.287316" lon="-0.489158"/>
      <trkpt lat="43.287260" lon="-0.489014"/>
      <trkpt lat="43.287230" lon="-0.488852"/>
      <trkpt lat="43.287218" lon="-0.488028"/>
      <trkpt lat="43.287177" lon="-0.487253"/>
      <trkpt lat="43.287132" lon="-0.487008"/>
      <trkpt lat="43.287078" lon="-0.486834"/>
      <trkpt lat="43.287011" lon="-0.486694"/>
      <trkpt lat="43.286908" lon="-0.486589"/>
      <trkpt lat="43.286799" lon="-0.486528"/>
      <trkpt lat="43.286716" lon="-0.486496"/>
      <trkpt lat="43.286457" lon="-0.486520"/>
      <trkpt lat="43.286310" lon="-0.486549"/>
      <trkpt lat="43.286167" lon="-0.486589"/>
      <trkpt lat="43.286047" lon="-0.486668"/>
      <trkpt lat="43.285961" lon="-0.486725"/>
      <trkpt lat="43.285885" lon="-0.486822"/>
      <trkpt lat="43.285365" lon="-0.488171"/>
      <trkpt lat="43.285299" lon="-0.488628"/>
      <trkpt lat="43.285260" lon="-0.488774"/>
      <trkpt lat="43.285232" lon="-0.488849"/>
      <trkpt lat="43.285195" lon="-0.488911"/>
      <trkpt lat="43.285139" lon="-0.488966"/>
      <trkpt lat="43.285084" lon="-0.489001"/>
      <trkpt lat="43.285014" lon="-0.489018"/>
      <trkpt lat="43.284938" lon="-0.489007"/>
      <trkpt lat="43.284547" lon="-0.488700"/>
      <trkpt lat="43.284280" lon="-0.488547"/>
      <trkpt lat="43.284178" lon="-0.488541"/>
      <trkpt lat="43.284075" lon="-0.488587"/>
      <trkpt lat="43.284018" lon="-0.488657"/>
      <trkpt lat="43.283992" lon="-0.488789"/>
      <trkpt lat="43.284028" lon="-0.488928"/>
      <trkpt lat="43.284070" lon="-0.489022"/>
      <trkpt lat="43.284852" lon="-0.490008"/>
      <trkpt lat="43.284948" lon="-0.490333"/>
      <trkpt lat="43.285000" lon="-0.490658"/>
      <trkpt lat="43.284995" lon="-0.492263"/>
      <trkpt lat="43.284746" lon="-0.494226"/>
      <trkpt lat="43.284732" lon="-0.494771"/>
      <trkpt lat="43.284729" lon="-0.495182"/>
      <trkpt lat="43.284811" lon="-0.495848"/>
      <trkpt lat="43.284838" lon="-0.496221"/>
      <trkpt lat="43.284722" lon="-0.496686"/>
      <trkpt lat="43.284418" lon="-0.497411"/>
      <trkpt lat="43.283953" lon="-0.497769"/>
      <trkpt lat="43.283446" lon="-0.497889"/>
      <trkpt lat="43.282843" lon="-0.497974"/>
      <trkpt lat="43.282349" lon="-0.497956"/>
      <trkpt lat="43.282032" lon="-0.497965"/>
      <trkpt lat="43.281653" lon="-0.498115"/>
      <trkpt lat="43.281159" lon="-0.498490"/>
      <trkpt lat="43.280915" lon="-0.498643"/>
      <trkpt lat="43.280731" lon="-0.498808"/>
      <trkpt lat="43.280660" lon="-0.498927"/>
      <trkpt lat="43.280596" lon="-0.499053"/>
      <trkpt lat="43.280473" lon="-0.499499"/>
      <trkpt lat="43.280296" lon="-0.500111"/>
      <trkpt lat="43.280079" lon="-0.500860"/>
      <trkpt lat="43.280007" lon="-0.501106"/>
      <trkpt lat="43.279520" lon="-0.502635"/>
      <trkpt lat="43.279431" lon="-0.502912"/>
      <trkpt lat="43.278798" lon="-0.503940"/>
      <trkpt lat="43.278726" lon="-0.504091"/>
      <trkpt lat="43.278633" lon="-0.504374"/>
      <trkpt lat="43.278520" lon="-0.504716"/>
      <trkpt lat="43.278473" lon="-0.504860"/>
      <trkpt lat="43.278383" lon="-0.505161"/>
      <trkpt lat="43.278377" lon="-0.505179"/>
      <trkpt lat="43.278298" lon="-0.505441"/>
      <trkpt lat="43.278235" lon="-0.505739"/>
      <trkpt lat="43.278163" lon="-0.506075"/>
      <trkpt lat="43.278062" lon="-0.506583"/>
      <trkpt lat="43.278042" lon="-0.506692"/>
      <trkpt lat="43.278020" lon="-0.506778"/>
      <trkpt lat="43.278030" lon="-0.506908"/>
      <trkpt lat="43.278038" lon="-0.506963"/>
      <trkpt lat="43.278048" lon="-0.507333"/>
      <trkpt lat="43.278043" lon="-0.507632"/>
      <trkpt lat="43.278010" lon="-0.507782"/>
      <trkpt lat="43.278002" lon="-0.507818"/>
      <trkpt lat="43.277820" lon="-0.507723"/>
      <trkpt lat="43.277670" lon="-0.507644"/>
      <trkpt lat="43.277592" lon="-0.507602"/>
      <trkpt lat="43.277392" lon="-0.507493"/>
      <trkpt lat="43.277348" lon="-0.507469"/>
      <trkpt lat="43.276974" lon="-0.507316"/>
      <trkpt lat="43.276915" lon="-0.507300"/>
      <trkpt lat="43.276215" lon="-0.507151"/>
      <trkpt lat="43.275963" lon="-0.507098"/>
      <trkpt lat="43.275605" lon="-0.507062"/>
      <trkpt lat="43.275481" lon="-0.507067"/>
      <trkpt lat="43.274959" lon="-0.507089"/>
      <trkpt lat="43.274852" lon="-0.507094"/>
      <trkpt lat="43.274419" lon="-0.507022"/>
      <trkpt lat="43.274018" lon="-0.506887"/>
      <trkpt lat="43.273753" lon="-0.506754"/>
      <trkpt lat="43.273384" lon="-0.506440"/>
      <trkpt lat="43.273278" lon="-0.506326"/>
      <trkpt lat="43.273046" lon="-0.506195"/>
      <trkpt lat="43.272816" lon="-0.506085"/>
      <trkpt lat="43.272532" lon="-0.506026"/>
      <trkpt lat="43.272259" lon="-0.506072"/>
      <trkpt lat="43.271583" lon="-0.506398"/>
      <trkpt lat="43.271423" lon="-0.506442"/>
      <trkpt lat="43.271323" lon="-0.506444"/>
      <trkpt lat="43.271151" lon="-0.506410"/>
      <trkpt lat="43.270968" lon="-0.506313"/>
      <trkpt lat="43.270738" lon="-0.506166"/>
      <trkpt lat="43.270616" lon="-0.506080"/>
      <trkpt lat="43.270432" lon="-0.505970"/>
      <trkpt lat="43.268796" lon="-0.504981"/>
      <trkpt lat="43.268027" lon="-0.504427"/>
      <trkpt lat="43.267097" lon="-0.503797"/>
      <trkpt lat="43.266895" lon="-0.503676"/>
      <trkpt lat="43.266719" lon="-0.503586"/>
      <trkpt lat="43.265590" lon="-0.503187"/>
      <trkpt lat="43.265208" lon="-0.503029"/>
      <trkpt lat="43.264925" lon="-0.502890"/>
      <trkpt lat="43.264606" lon="-0.502695"/>
      <trkpt lat="43.264362" lon="-0.502497"/>
      <trkpt lat="43.263949" lon="-0.502161"/>
      <trkpt lat="43.263493" lon="-0.501839"/>
      <trkpt lat="43.262885" lon="-0.501408"/>
      <trkpt lat="43.262733" lon="-0.501300"/>
      <trkpt lat="43.262683" lon="-0.501265"/>
      <trkpt lat="43.261237" lon="-0.500242"/>
      <trkpt lat="43.261086" lon="-0.500144"/>
      <trkpt lat="43.260929" lon="-0.500105"/>
      <trkpt lat="43.260304" lon="-0.500062"/>
      <trkpt lat="43.260009" lon="-0.500035"/>
      <trkpt lat="43.258979" lon="-0.499940"/>
      <trkpt lat="43.258822" lon="-0.499925"/>
      <trkpt lat="43.258782" lon="-0.499920"/>
      <trkpt lat="43.257797" lon="-0.499794"/>
      <trkpt lat="43.257728" lon="-0.499785"/>
      <trkpt lat="43.257607" lon="-0.499769"/>
      <trkpt lat="43.257485" lon="-0.499755"/>
      <trkpt lat="43.257444" lon="-0.499750"/>
      <trkpt lat="43.257171" lon="-0.499706"/>
      <trkpt lat="43.256917" lon="-0.499600"/>
      <trkpt lat="43.256714" lon="-0.499473"/>
      <trkpt lat="43.256519" lon="-0.499317"/>
      <trkpt lat="43.256136" lon="-0.499012"/>
      <trkpt lat="43.255558" lon="-0.498551"/>
      <trkpt lat="43.255154" lon="-0.498246"/>
      <trkpt lat="43.254883" lon="-0.498102"/>
      <trkpt lat="43.253834" lon="-0.497691"/>
      <trkpt lat="43.253592" lon="-0.497548"/>
      <trkpt lat="43.253355" lon="-0.497301"/>
      <trkpt lat="43.252666" lon="-0.496356"/>
      <trkpt lat="43.252466" lon="-0.496147"/>
      <trkpt lat="43.252315" lon="-0.496048"/>
      <trkpt lat="43.252124" lon="-0.495962"/>
      <trkpt lat="43.250368" lon="-0.495297"/>
      <trkpt lat="43.249589" lon="-0.494988"/>
      <trkpt lat="43.249132" lon="-0.494769"/>
      <trkpt lat="43.248666" lon="-0.494466"/>
      <trkpt lat="43.248522" lon="-0.494380"/>
      <trkpt lat="43.248375" lon="-0.494257"/>
      <trkpt lat="43.248093" lon="-0.493965"/>
      <trkpt lat="43.247613" lon="-0.493216"/>
      <trkpt lat="43.247403" lon="-0.492913"/>
      <trkpt lat="43.247187" lon="-0.492698"/>
      <trkpt lat="43.246829" lon="-0.492437"/>
      <trkpt lat="43.246057" lon="-0.492051"/>
      <trkpt lat="43.245738" lon="-0.491863"/>
      <trkpt lat="43.245633" lon="-0.491754"/>
      <trkpt lat="43.245476" lon="-0.491593"/>
      <trkpt lat="43.245239" lon="-0.491225"/>
      <trkpt lat="43.245096" lon="-0.490822"/>
      <trkpt lat="43.244987" lon="-0.490292"/>
      <trkpt lat="43.244911" lon="-0.490005"/>
      <trkpt lat="43.244760" lon="-0.489661"/>
      <trkpt lat="43.244552" lon="-0.489279"/>
      <trkpt lat="43.244445" lon="-0.489092"/>
      <trkpt lat="43.244285" lon="-0.488892"/>
      <trkpt lat="43.243704" lon="-0.488384"/>
      <trkpt lat="43.243446" lon="-0.488121"/>
      <trkpt lat="43.243108" lon="-0.487646"/>
      <trkpt lat="43.242853" lon="-0.487241"/>
      <trkpt lat="43.242589" lon="-0.486938"/>
      <trkpt lat="43.242321" lon="-0.486743"/>
      <trkpt lat="43.241533" lon="-0.486353"/>
      <trkpt lat="43.241380" lon="-0.486254"/>
      <trkpt lat="43.241269" lon="-0.486174"/>
      <trkpt lat="43.241187" lon="-0.486083"/>
      <trkpt lat="43.240974" lon="-0.485827"/>
      <trkpt lat="43.240800" lon="-0.485661"/>
      <trkpt lat="43.240721" lon="-0.485611"/>
      <trkpt lat="43.240644" lon="-0.485588"/>
      <trkpt lat="43.240525" lon="-0.485561"/>
      <trkpt lat="43.240233" lon="-0.485570"/>
      <trkpt lat="43.240111" lon="-0.485618"/>
      <trkpt lat="43.239843" lon="-0.485778"/>
      <trkpt lat="43.239672" lon="-0.485844"/>
      <trkpt lat="43.239508" lon="-0.485857"/>
      <trkpt lat="43.239314" lon="-0.485825"/>
      <trkpt lat="43.238989" lon="-0.485726"/>
      <trkpt lat="43.236593" lon="-0.484810"/>
      <trkpt lat="43.236425" lon="-0.484717"/>
      <trkpt lat="43.234986" lon="-0.483565"/>
      <trkpt lat="43.234891" lon="-0.483484"/>
      <trkpt lat="43.233476" lon="-0.482197"/>
      <trkpt lat="43.233180" lon="-0.482039"/>
      <trkpt lat="43.233026" lon="-0.482006"/>
      <trkpt lat="43.232882" lon="-0.481997"/>
      <trkpt lat="43.232710" lon="-0.482009"/>
      <trkpt lat="43.232582" lon="-0.482047"/>
      <trkpt lat="43.232269" lon="-0.482186"/>
      <trkpt lat="43.232030" lon="-0.482266"/>
      <trkpt lat="43.231874" lon="-0.482287"/>
      <trkpt lat="43.231752" lon="-0.482286"/>
      <trkpt lat="43.231287" lon="-0.482193"/>
      <trkpt lat="43.229953" lon="-0.481862"/>
      <trkpt lat="43.228718" lon="-0.481577"/>
      <trkpt lat="43.228656" lon="-0.481563"/>
      <trkpt lat="43.228427" lon="-0.481511"/>
      <trkpt lat="43.228141" lon="-0.481446"/>
      <trkpt lat="43.227851" lon="-0.481309"/>
      <trkpt lat="43.227627" lon="-0.481155"/>
      <trkpt lat="43.227003" lon="-0.480637"/>
      <trkpt lat="43.226747" lon="-0.480489"/>
      <trkpt lat="43.226625" lon="-0.480442"/>
      <trkpt lat="43.226411" lon="-0.480399"/>
      <trkpt lat="43.225994" lon="-0.480407"/>
      <trkpt lat="43.225354" lon="-0.480420"/>
      <trkpt lat="43.225138" lon="-0.480382"/>
      <trkpt lat="43.224957" lon="-0.480327"/>
      <trkpt lat="43.224612" lon="-0.480169"/>
      <trkpt lat="43.223689" lon="-0.479729"/>
      <trkpt lat="43.223516" lon="-0.479626"/>
      <trkpt lat="43.223453" lon="-0.479589"/>
      <trkpt lat="43.223294" lon="-0.479491"/>
      <trkpt lat="43.223122" lon="-0.479351"/>
      <trkpt lat="43.222930" lon="-0.479167"/>
      <trkpt lat="43.222740" lon="-0.478970"/>
      <trkpt lat="43.222577" lon="-0.478801"/>
      <trkpt lat="43.222555" lon="-0.478780"/>
      <trkpt lat="43.222519" lon="-0.478744"/>
      <trkpt lat="43.222446" lon="-0.478668"/>
      <trkpt lat="43.222373" lon="-0.478599"/>
      <trkpt lat="43.222270" lon="-0.478499"/>
      <trkpt lat="43.222232" lon="-0.478461"/>
      <trkpt lat="43.222202" lon="-0.478431"/>
      <trkpt lat="43.222146" lon="-0.478452"/>
      <trkpt lat="43.222092" lon="-0.478471"/>
      <trkpt lat="43.221959" lon="-0.478520"/>
      <trkpt lat="43.221567" lon="-0.478561"/>
      <trkpt lat="43.221475" lon="-0.478575"/>
      <trkpt lat="43.221386" lon="-0.478649"/>
      <trkpt lat="43.221478" lon="-0.478884"/>
      <trkpt lat="43.221478" lon="-0.478884"/>
      <trkpt lat="43.221509" lon="-0.479244"/>
      <trkpt lat="43.221516" lon="-0.479328"/>
      <trkpt lat="43.221558" lon="-0.480032"/>
      <trkpt lat="43.221548" lon="-0.480144"/>
      <trkpt lat="43.221561" lon="-0.480283"/>
      <trkpt lat="43.221564" lon="-0.480400"/>
      <trkpt lat="43.221548" lon="-0.480584"/>
      <trkpt lat="43.221550" lon="-0.480848"/>
      <trkpt lat="43.221535" lon="-0.480967"/>
      <trkpt lat="43.221532" lon="-0.480990"/>
      <trkpt lat="43.221510" lon="-0.481196"/>
      <trkpt lat="43.221506" lon="-0.481225"/>
      <trkpt lat="43.221509" lon="-0.481288"/>
      <trkpt lat="43.221500" lon="-0.481325"/>
      <trkpt lat="43.221494" lon="-0.481441"/>
      <trkpt lat="43.221471" lon="-0.482011"/>
      <trkpt lat="43.221469" lon="-0.482052"/>
      <trkpt lat="43.221456" lon="-0.482344"/>
      <trkpt lat="43.221442" lon="-0.482645"/>
      <trkpt lat="43.221418" lon="-0.483185"/>
      <trkpt lat="43.221389" lon="-0.483467"/>
      <trkpt lat="43.221395" lon="-0.483625"/>
      <trkpt lat="43.221370" lon="-0.484107"/>
      <trkpt lat="43.221373" lon="-0.484321"/>
      <trkpt lat="43.221349" lon="-0.484607"/>
      <trkpt lat="43.221325" lon="-0.485012"/>
      <trkpt lat="43.221286" lon="-0.485886"/>
      <trkpt lat="43.221237" lon="-0.486771"/>
      <trkpt lat="43.221194" lon="-0.487790"/>
      <trkpt lat="43.221196" lon="-0.487975"/>
      <trkpt lat="43.221524" lon="-0.491180"/>
      <trkpt lat="43.221622" lon="-0.492114"/>
      <trkpt lat="43.221663" lon="-0.492509"/>
      <trkpt lat="43.221709" lon="-0.492720"/>
      <trkpt lat="43.221781" lon="-0.492902"/>
      <trkpt lat="43.222184" lon="-0.493704"/>
      <trkpt lat="43.222269" lon="-0.494030"/>
      <trkpt lat="43.222292" lon="-0.494229"/>
      <trkpt lat="43.222273" lon="-0.494426"/>
      <trkpt lat="43.222231" lon="-0.494605"/>
      <trkpt lat="43.222176" lon="-0.494737"/>
      <trkpt lat="43.222089" lon="-0.494878"/>
      <trkpt lat="43.221837" lon="-0.495276"/>
      <trkpt lat="43.221710" lon="-0.495540"/>
      <trkpt lat="43.221647" lon="-0.495750"/>
      <trkpt lat="43.221442" lon="-0.497285"/>
      <trkpt lat="43.221401" lon="-0.497489"/>
      <trkpt lat="43.221340" lon="-0.497702"/>
      <trkpt lat="43.221085" lon="-0.498269"/>
      <trkpt lat="43.221051" lon="-0.498469"/>
      <trkpt lat="43.221041" lon="-0.498624"/>
      <trkpt lat="43.221114" lon="-0.499297"/>
      <trkpt lat="43.221130" lon="-0.499549"/>
      <trkpt lat="43.221110" lon="-0.499762"/>
      <trkpt lat="43.220661" lon="-0.502096"/>
      <trkpt lat="43.220619" lon="-0.502655"/>
      <trkpt lat="43.220614" lon="-0.504726"/>
      <trkpt lat="43.220575" lon="-0.504968"/>
      <trkpt lat="43.220415" lon="-0.505288"/>
      <trkpt lat="43.220303" lon="-0.505471"/>
      <trkpt lat="43.220224" lon="-0.505633"/>
      <trkpt lat="43.220175" lon="-0.505764"/>
      <trkpt lat="43.220144" lon="-0.505892"/>
      <trkpt lat="43.219977" lon="-0.506591"/>
      <trkpt lat="43.219861" lon="-0.507131"/>
      <trkpt lat="43.219840" lon="-0.507299"/>
      <trkpt lat="43.219847" lon="-0.507468"/>
      <trkpt lat="43.220253" lon="-0.509690"/>
      <trkpt lat="43.220307" lon="-0.509992"/>
      <trkpt lat="43.220723" lon="-0.512329"/>
      <trkpt lat="43.220759" lon="-0.512532"/>
      <trkpt lat="43.221023" lon="-0.513973"/>
      <trkpt lat="43.221604" lon="-0.517139"/>
      <trkpt lat="43.221824" lon="-0.518520"/>
      <trkpt lat="43.221957" lon="-0.519311"/>
      <trkpt lat="43.222055" lon="-0.520023"/>
      <trkpt lat="43.222176" lon="-0.520566"/>
      <trkpt lat="43.222679" lon="-0.522265"/>
      <trkpt lat="43.222951" lon="-0.523025"/>
      <trkpt lat="43.223669" lon="-0.524756"/>
      <trkpt lat="43.223714" lon="-0.524909"/>
      <trkpt lat="43.223746" lon="-0.525092"/>
      <trkpt lat="43.223758" lon="-0.525295"/>
      <trkpt lat="43.223739" lon="-0.525438"/>
      <trkpt lat="43.223688" lon="-0.525617"/>
      <trkpt lat="43.223142" lon="-0.526871"/>
      <trkpt lat="43.223038" lon="-0.527016"/>
      <trkpt lat="43.222918" lon="-0.527136"/>
      <trkpt lat="43.220840" lon="-0.528448"/>
      <trkpt lat="43.220536" lon="-0.528655"/>
      <trkpt lat="43.220304" lon="-0.528836"/>
      <trkpt lat="43.219413" lon="-0.529910"/>
      <trkpt lat="43.219222" lon="-0.530190"/>
      <trkpt lat="43.218059" lon="-0.532458"/>
      <trkpt lat="43.217683" lon="-0.533206"/>
      <trkpt lat="43.217592" lon="-0.533443"/>
      <trkpt lat="43.217288" lon="-0.534599"/>
      <trkpt lat="43.217121" lon="-0.535237"/>
      <trkpt lat="43.217040" lon="-0.535669"/>
      <trkpt lat="43.216979" lon="-0.535960"/>
      <trkpt lat="43.216885" lon="-0.536192"/>
      <trkpt lat="43.216742" lon="-0.536458"/>
      <trkpt lat="43.216624" lon="-0.536615"/>
      <trkpt lat="43.216481" lon="-0.536737"/>
      <trkpt lat="43.216202" lon="-0.536934"/>
      <trkpt lat="43.216012" lon="-0.537160"/>
      <trkpt lat="43.215710" lon="-0.537561"/>
      <trkpt lat="43.215613" lon="-0.537773"/>
      <trkpt lat="43.215581" lon="-0.537914"/>
      <trkpt lat="43.215529" lon="-0.538282"/>
      <trkpt lat="43.215513" lon="-0.538722"/>
      <trkpt lat="43.215524" lon="-0.538844"/>
      <trkpt lat="43.215544" lon="-0.538946"/>
      <trkpt lat="43.215574" lon="-0.539026"/>
      <trkpt lat="43.215616" lon="-0.539100"/>
      <trkpt lat="43.215928" lon="-0.539395"/>
      <trkpt lat="43.215970" lon="-0.539530"/>
      <trkpt lat="43.215970" lon="-0.539679"/>
      <trkpt lat="43.215942" lon="-0.539832"/>
      <trkpt lat="43.215546" lon="-0.540977"/>
      <trkpt lat="43.215401" lon="-0.541573"/>
      <trkpt lat="43.215339" lon="-0.541905"/>
      <trkpt lat="43.215181" lon="-0.543095"/>
      <trkpt lat="43.215168" lon="-0.545344"/>
      <trkpt lat="43.215166" lon="-0.545662"/>
      <trkpt lat="43.215164" lon="-0.546033"/>
      <trkpt lat="43.215154" lon="-0.547133"/>
      <trkpt lat="43.215135" lon="-0.547320"/>
      <trkpt lat="43.215082" lon="-0.547554"/>
      <trkpt lat="43.215006" lon="-0.547691"/>
      <trkpt lat="43.214875" lon="-0.547842"/>
      <trkpt lat="43.214520" lon="-0.548054"/>
      <trkpt lat="43.213809" lon="-0.548449"/>
      <trkpt lat="43.213677" lon="-0.548540"/>
      <trkpt lat="43.213540" lon="-0.548684"/>
      <trkpt lat="43.213451" lon="-0.548839"/>
      <trkpt lat="43.213359" lon="-0.549051"/>
      <trkpt lat="43.213249" lon="-0.549607"/>
      <trkpt lat="43.213140" lon="-0.550163"/>
      <trkpt lat="43.213038" lon="-0.550533"/>
      <trkpt lat="43.212879" lon="-0.550971"/>
      <trkpt lat="43.212800" lon="-0.551214"/>
      <trkpt lat="43.212593" lon="-0.551757"/>
      <trkpt lat="43.212567" lon="-0.551893"/>
      <trkpt lat="43.212563" lon="-0.552028"/>
      <trkpt lat="43.212602" lon="-0.552284"/>
      <trkpt lat="43.212617" lon="-0.552368"/>
      <trkpt lat="43.212668" lon="-0.552590"/>
      <trkpt lat="43.212751" lon="-0.553045"/>
      <trkpt lat="43.212798" lon="-0.553489"/>
      <trkpt lat="43.212867" lon="-0.553718"/>
      <trkpt lat="43.212909" lon="-0.553921"/>
      <trkpt lat="43.212898" lon="-0.554121"/>
      <trkpt lat="43.212858" lon="-0.554272"/>
      <trkpt lat="43.212568" lon="-0.554867"/>
      <trkpt lat="43.212532" lon="-0.555036"/>
      <trkpt lat="43.212531" lon="-0.555126"/>
      <trkpt lat="43.212578" lon="-0.555301"/>
      <trkpt lat="43.212635" lon="-0.555450"/>
      <trkpt lat="43.212673" lon="-0.555581"/>
      <trkpt lat="43.212682" lon="-0.555749"/>
      <trkpt lat="43.212640" lon="-0.555910"/>
      <trkpt lat="43.212547" lon="-0.556046"/>
      <trkpt lat="43.212320" lon="-0.556248"/>
      <trkpt lat="43.212174" lon="-0.556410"/>
      <trkpt lat="43.211916" lon="-0.556991"/>
      <trkpt lat="43.211827" lon="-0.557118"/>
      <trkpt lat="43.211692" lon="-0.557243"/>
      <trkpt lat="43.211443" lon="-0.557375"/>
      <trkpt lat="43.211208" lon="-0.557586"/>
      <trkpt lat="43.210800" lon="-0.557834"/>
      <trkpt lat="43.210680" lon="-0.557934"/>
      <trkpt lat="43.210624" lon="-0.558038"/>
      <trkpt lat="43.210534" lon="-0.558245"/>
      <trkpt lat="43.210353" lon="-0.558747"/>
      <trkpt lat="43.210320" lon="-0.558934"/>
      <trkpt lat="43.210326" lon="-0.559052"/>
      <trkpt lat="43.210350" lon="-0.559199"/>
      <trkpt lat="43.210374" lon="-0.559352"/>
      <trkpt lat="43.210361" lon="-0.559490"/>
      <trkpt lat="43.210231" lon="-0.559882"/>
      <trkpt lat="43.210136" lon="-0.560220"/>
      <trkpt lat="43.210040" lon="-0.560378"/>
      <trkpt lat="43.209924" lon="-0.560479"/>
      <trkpt lat="43.209575" lon="-0.560594"/>
      <trkpt lat="43.209475" lon="-0.560649"/>
      <trkpt lat="43.208923" lon="-0.561052"/>
      <trkpt lat="43.208249" lon="-0.561351"/>
      <trkpt lat="43.208109" lon="-0.561476"/>
      <trkpt lat="43.208003" lon="-0.561635"/>
      <trkpt lat="43.207924" lon="-0.562006"/>
      <trkpt lat="43.207827" lon="-0.562898"/>
      <trkpt lat="43.207752" lon="-0.563898"/>
      <trkpt lat="43.207649" lon="-0.564526"/>
      <trkpt lat="43.207460" lon="-0.565342"/>
      <trkpt lat="43.207361" lon="-0.565602"/>
      <trkpt lat="43.207313" lon="-0.565704"/>
      <trkpt lat="43.207267" lon="-0.565802"/>
      <trkpt lat="43.207198" lon="-0.565949"/>
      <trkpt lat="43.207154" lon="-0.566259"/>
      <trkpt lat="43.207158" lon="-0.566568"/>
      <trkpt lat="43.207183" lon="-0.566905"/>
      <trkpt lat="43.207234" lon="-0.567345"/>
      <trkpt lat="43.207277" lon="-0.567654"/>
      <trkpt lat="43.207397" lon="-0.568254"/>
      <trkpt lat="43.207428" lon="-0.568816"/>
      <trkpt lat="43.207448" lon="-0.569230"/>
      <trkpt lat="43.207421" lon="-0.569367"/>
      <trkpt lat="43.207367" lon="-0.569497"/>
      <trkpt lat="43.207318" lon="-0.569568"/>
      <trkpt lat="43.207237" lon="-0.569647"/>
      <trkpt lat="43.206947" lon="-0.569798"/>
      <trkpt lat="43.206764" lon="-0.569939"/>
      <trkpt lat="43.206627" lon="-0.570122"/>
      <trkpt lat="43.206562" lon="-0.570251"/>
      <trkpt lat="43.206536" lon="-0.570405"/>
      <trkpt lat="43.206535" lon="-0.570608"/>
      <trkpt lat="43.206527" lon="-0.570796"/>
      <trkpt lat="43.206433" lon="-0.571233"/>
      <trkpt lat="43.206371" lon="-0.572319"/>
      <trkpt lat="43.206375" lon="-0.572644"/>
      <trkpt lat="43.206384" lon="-0.572824"/>
      <trkpt lat="43.206409" lon="-0.573004"/>
      <trkpt lat="43.206506" lon="-0.573472"/>
      <trkpt lat="43.206609" lon="-0.574195"/>
      <trkpt lat="43.206618" lon="-0.574484"/>
      <trkpt lat="43.206567" lon="-0.574696"/>
      <trkpt lat="43.206497" lon="-0.574826"/>
      <trkpt lat="43.206283" lon="-0.575000"/>
      <trkpt lat="43.206175" lon="-0.575143"/>
      <trkpt lat="43.206058" lon="-0.575501"/>
      <trkpt lat="43.206034" lon="-0.575703"/>
      <trkpt lat="43.206043" lon="-0.575825"/>
      <trkpt lat="43.206087" lon="-0.575915"/>
      <trkpt lat="43.206136" lon="-0.575979"/>
      <trkpt lat="43.206200" lon="-0.576046"/>
      <trkpt lat="43.206369" lon="-0.576143"/>
      <trkpt lat="43.206440" lon="-0.576207"/>
      <trkpt lat="43.206476" lon="-0.576272"/>
      <trkpt lat="43.206485" lon="-0.576317"/>
      <trkpt lat="43.206479" lon="-0.576393"/>
      <trkpt lat="43.206455" lon="-0.576452"/>
      <trkpt lat="43.206397" lon="-0.576533"/>
      <trkpt lat="43.205792" lon="-0.577071"/>
      <trkpt lat="43.205671" lon="-0.577173"/>
      <trkpt lat="43.205266" lon="-0.577438"/>
      <trkpt lat="43.205154" lon="-0.577563"/>
      <trkpt lat="43.205084" lon="-0.577693"/>
      <trkpt lat="43.205048" lon="-0.577814"/>
      <trkpt lat="43.205018" lon="-0.578083"/>
      <trkpt lat="43.205028" lon="-0.578502"/>
      <trkpt lat="43.205047" lon="-0.579049"/>
      <trkpt lat="43.205048" lon="-0.579627"/>
      <trkpt lat="43.205064" lon="-0.579963"/>
      <trkpt lat="43.205169" lon="-0.580920"/>
      <trkpt lat="43.205176" lon="-0.581160"/>
      <trkpt lat="43.205169" lon="-0.581403"/>
      <trkpt lat="43.205136" lon="-0.581675"/>
      <trkpt lat="43.204998" lon="-0.582297"/>
      <trkpt lat="43.204893" lon="-0.582827"/>
      <trkpt lat="43.204847" lon="-0.583128"/>
      <trkpt lat="43.204821" lon="-0.583360"/>
      <trkpt lat="43.204809" lon="-0.583543"/>
      <trkpt lat="43.204784" lon="-0.584260"/>
      <trkpt lat="43.204753" lon="-0.584999"/>
      <trkpt lat="43.204726" lon="-0.585310"/>
      <trkpt lat="43.204698" lon="-0.585512"/>
      <trkpt lat="43.204647" lon="-0.585768"/>
      <trkpt lat="43.204613" lon="-0.585902"/>
      <trkpt lat="43.204603" lon="-0.585993"/>
      <trkpt lat="43.204585" lon="-0.586064"/>
      <trkpt lat="43.204537" lon="-0.586213"/>
      <trkpt lat="43.204460" lon="-0.586410"/>
      <trkpt lat="43.204379" lon="-0.586560"/>
      <trkpt lat="43.204277" lon="-0.586720"/>
      <trkpt lat="43.204160" lon="-0.586866"/>
      <trkpt lat="43.204060" lon="-0.586973"/>
      <trkpt lat="43.203993" lon="-0.587043"/>
      <trkpt lat="43.203885" lon="-0.587157"/>
      <trkpt lat="43.203803" lon="-0.587241"/>
      <trkpt lat="43.203643" lon="-0.587392"/>
      <trkpt lat="43.203517" lon="-0.587500"/>
      <trkpt lat="43.203467" lon="-0.587529"/>
      <trkpt lat="43.203404" lon="-0.587545"/>
      <trkpt lat="43.203238" lon="-0.587692"/>
      <trkpt lat="43.203048" lon="-0.587856"/>
      <trkpt lat="43.202626" lon="-0.588180"/>
      <trkpt lat="43.202140" lon="-0.588565"/>
      <trkpt lat="43.201816" lon="-0.588837"/>
      <trkpt lat="43.201780" lon="-0.588877"/>
      <trkpt lat="43.201750" lon="-0.588910"/>
      <trkpt lat="43.201713" lon="-0.588950"/>
      <trkpt lat="43.201689" lon="-0.588979"/>
      <trkpt lat="43.201601" lon="-0.589102"/>
      <trkpt lat="43.201582" lon="-0.589130"/>
      <trkpt lat="43.201444" lon="-0.589316"/>
      <trkpt lat="43.200325" lon="-0.590884"/>
      <trkpt lat="43.199959" lon="-0.591404"/>
      <trkpt lat="43.199811" lon="-0.591613"/>
      <trkpt lat="43.199790" lon="-0.591679"/>
      <trkpt lat="43.199763" lon="-0.591800"/>
      <trkpt lat="43.199777" lon="-0.591853"/>
      <trkpt lat="43.199774" lon="-0.591926"/>
      <trkpt lat="43.199738" lon="-0.591997"/>
      <trkpt lat="43.199710" lon="-0.592014"/>
      <trkpt lat="43.199666" lon="-0.592025"/>
      <trkpt lat="43.199623" lon="-0.592010"/>
      <trkpt lat="43.199565" lon="-0.592040"/>
      <trkpt lat="43.199501" lon="-0.592108"/>
      <trkpt lat="43.199448" lon="-0.592182"/>
      <trkpt lat="43.199398" lon="-0.592234"/>
      <trkpt lat="43.199300" lon="-0.592401"/>
      <trkpt lat="43.199156" lon="-0.592643"/>
      <trkpt lat="43.198983" lon="-0.592945"/>
      <trkpt lat="43.198972" lon="-0.592964"/>
      <trkpt lat="43.198904" lon="-0.593089"/>
      <trkpt lat="43.198758" lon="-0.593388"/>
      <trkpt lat="43.198582" lon="-0.593779"/>
      <trkpt lat="43.198465" lon="-0.594045"/>
      <trkpt lat="43.198355" lon="-0.594271"/>
      <trkpt lat="43.198242" lon="-0.594507"/>
      <trkpt lat="43.198117" lon="-0.594766"/>
      <trkpt lat="43.198049" lon="-0.594914"/>
      <trkpt lat="43.198022" lon="-0.594974"/>
      <trkpt lat="43.197898" lon="-0.595241"/>
      <trkpt lat="43.197849" lon="-0.595334"/>
      <trkpt lat="43.197743" lon="-0.595540"/>
      <trkpt lat="43.197701" lon="-0.595617"/>
      <trkpt lat="43.197548" lon="-0.595876"/>
      <trkpt lat="43.197373" lon="-0.596228"/>
      <trkpt lat="43.197174" lon="-0.596643"/>
      <trkpt lat="43.197150" lon="-0.596694"/>
      <trkpt lat="43.197128" lon="-0.596742"/>
      <trkpt lat="43.196927" lon="-0.597144"/>
      <trkpt lat="43.196858" lon="-0.597277"/>
      <trkpt lat="43.196791" lon="-0.597405"/>
      <trkpt lat="43.196536" lon="-0.597913"/>
      <trkpt lat="43.196250" lon="-0.598483"/>
      <trkpt lat="43.195974" lon="-0.599031"/>
      <trkpt lat="43.195702" lon="-0.599573"/>
      <trkpt lat="43.195526" lon="-0.599926"/>
      <trkpt lat="43.195493" lon="-0.599979"/>
      <trkpt lat="43.195447" lon="-0.600030"/>
      <trkpt lat="43.195397" lon="-0.600072"/>
      <trkpt lat="43.195330" lon="-0.600222"/>
      <trkpt lat="43.195342" lon="-0.600280"/>
      <trkpt lat="43.195342" lon="-0.600347"/>
      <trkpt lat="43.195440" lon="-0.600504"/>
      <trkpt lat="43.195550" lon="-0.600663"/>
      <trkpt lat="43.195735" lon="-0.600815"/>
      <trkpt lat="43.195844" lon="-0.600934"/>
      <trkpt lat="43.195970" lon="-0.601129"/>
      <trkpt lat="43.196077" lon="-0.601406"/>
      <trkpt lat="43.196185" lon="-0.601759"/>
      <trkpt lat="43.196208" lon="-0.601836"/>
      <trkpt lat="43.196237" lon="-0.601915"/>
      <trkpt lat="43.196266" lon="-0.601993"/>
      <trkpt lat="43.196414" lon="-0.602256"/>
      <trkpt lat="43.196561" lon="-0.602428"/>
      <trkpt lat="43.196904" lon="-0.602752"/>
      <trkpt lat="43.196940" lon="-0.602787"/>
      <trkpt lat="43.196984" lon="-0.602826"/>
      <trkpt lat="43.197175" lon="-0.602994"/>
      <trkpt lat="43.197520" lon="-0.603314"/>
      <trkpt lat="43.197581" lon="-0.603405"/>
      <trkpt lat="43.197608" lon="-0.603482"/>
      <trkpt lat="43.197628" lon="-0.603632"/>
      <trkpt lat="43.197627" lon="-0.603790"/>
      <trkpt lat="43.197643" lon="-0.603910"/>
      <trkpt lat="43.197677" lon="-0.604167"/>
      <trkpt lat="43.197708" lon="-0.604204"/>
      <trkpt lat="43.197731" lon="-0.604251"/>
      <trkpt lat="43.197746" lon="-0.604312"/>
      <trkpt lat="43.197749" lon="-0.604377"/>
      <trkpt lat="43.197741" lon="-0.604429"/>
      <trkpt lat="43.197726" lon="-0.604477"/>
      <trkpt lat="43.197701" lon="-0.604520"/>
      <trkpt lat="43.197603" lon="-0.604777"/>
      <trkpt lat="43.197575" lon="-0.604841"/>
      <trkpt lat="43.197489" lon="-0.605209"/>
      <trkpt lat="43.197466" lon="-0.605312"/>
      <trkpt lat="43.197461" lon="-0.605421"/>
      <trkpt lat="43.197451" lon="-0.605630"/>
      <trkpt lat="43.197526" lon="-0.607191"/>
      <trkpt lat="43.197541" lon="-0.607305"/>
      <trkpt lat="43.197554" lon="-0.607374"/>
      <trkpt lat="43.197583" lon="-0.607495"/>
      <trkpt lat="43.197629" lon="-0.607656"/>
      <trkpt lat="43.197696" lon="-0.607824"/>
      <trkpt lat="43.197772" lon="-0.607963"/>
      <trkpt lat="43.197800" lon="-0.608015"/>
      <trkpt lat="43.198142" lon="-0.608649"/>
      <trkpt lat="43.198251" lon="-0.608851"/>
      <trkpt lat="43.198360" lon="-0.609108"/>
      <trkpt lat="43.198448" lon="-0.609359"/>
      <trkpt lat="43.198755" lon="-0.610916"/>
      <trkpt lat="43.198767" lon="-0.611029"/>
      <trkpt lat="43.198821" lon="-0.611271"/>
      <trkpt lat="43.198842" lon="-0.611303"/>
      <trkpt lat="43.198857" lon="-0.611347"/>
      <trkpt lat="43.198861" lon="-0.611384"/>
      <trkpt lat="43.198858" lon="-0.611422"/>
      <trkpt lat="43.198903" lon="-0.611620"/>
      <trkpt lat="43.198983" lon="-0.611962"/>
      <trkpt lat="43.198990" lon="-0.612043"/>
      <trkpt lat="43.198998" lon="-0.612117"/>
      <trkpt lat="43.199012" lon="-0.612255"/>
      <trkpt lat="43.199028" lon="-0.612495"/>
      <trkpt lat="43.199022" lon="-0.613002"/>
      <trkpt lat="43.199013" lon="-0.613486"/>
      <trkpt lat="43.199007" lon="-0.613571"/>
      <trkpt lat="43.199001" lon="-0.613658"/>
      <trkpt lat="43.198973" lon="-0.613874"/>
      <trkpt lat="43.198947" lon="-0.613978"/>
      <trkpt lat="43.198912" lon="-0.614078"/>
      <trkpt lat="43.198850" lon="-0.614225"/>
      <trkpt lat="43.198533" lon="-0.614803"/>
      <trkpt lat="43.198519" lon="-0.614829"/>
      <trkpt lat="43.198180" lon="-0.615448"/>
      <trkpt lat="43.198143" lon="-0.615526"/>
      <trkpt lat="43.198059" lon="-0.615726"/>
      <trkpt lat="43.197782" lon="-0.616425"/>
      <trkpt lat="43.197621" lon="-0.616828"/>
      <trkpt lat="43.197545" lon="-0.617015"/>
      <trkpt lat="43.197527" lon="-0.617062"/>
      <trkpt lat="43.197493" lon="-0.617202"/>
      <trkpt lat="43.197300" lon="-0.617702"/>
      <trkpt lat="43.197271" lon="-0.617802"/>
      <trkpt lat="43.197288" lon="-0.617842"/>
      <trkpt lat="43.197293" lon="-0.617888"/>
      <trkpt lat="43.197283" lon="-0.617941"/>
      <trkpt lat="43.197260" lon="-0.617983"/>
      <trkpt lat="43.197232" lon="-0.618005"/>
      <trkpt lat="43.197201" lon="-0.618014"/>
      <trkpt lat="43.197006" lon="-0.618357"/>
      <trkpt lat="43.196998" lon="-0.618383"/>
      <trkpt lat="43.196905" lon="-0.618620"/>
      <trkpt lat="43.196868" lon="-0.618713"/>
      <trkpt lat="43.196845" lon="-0.618772"/>
      <trkpt lat="43.196716" lon="-0.619092"/>
      <trkpt lat="43.196644" lon="-0.619271"/>
      <trkpt lat="43.196630" lon="-0.619309"/>
      <trkpt lat="43.196605" lon="-0.619402"/>
      <trkpt lat="43.196524" lon="-0.619599"/>
      <trkpt lat="43.196524" lon="-0.619642"/>
      <trkpt lat="43.196518" lon="-0.619684"/>
      <trkpt lat="43.196505" lon="-0.619730"/>
      <trkpt lat="43.196485" lon="-0.619771"/>
      <trkpt lat="43.196460" lon="-0.619806"/>
      <trkpt lat="43.196430" lon="-0.619833"/>
      <trkpt lat="43.196392" lon="-0.619852"/>
      <trkpt lat="43.196352" lon="-0.619859"/>
      <trkpt lat="43.196311" lon="-0.619853"/>
      <trkpt lat="43.196272" lon="-0.619834"/>
      <trkpt lat="43.196230" lon="-0.619793"/>
      <trkpt lat="43.196198" lon="-0.619737"/>
      <trkpt lat="43.196074" lon="-0.619686"/>
      <trkpt lat="43.195991" lon="-0.619645"/>
      <trkpt lat="43.195935" lon="-0.619637"/>
      <trkpt lat="43.195655" lon="-0.619586"/>
      <trkpt lat="43.195439" lon="-0.619553"/>
      <trkpt lat="43.195368" lon="-0.619544"/>
      <trkpt lat="43.195298" lon="-0.619534"/>
      <trkpt lat="43.195148" lon="-0.619514"/>
      <trkpt lat="43.194858" lon="-0.619463"/>
      <trkpt lat="43.194688" lon="-0.619418"/>
      <trkpt lat="43.194399" lon="-0.619325"/>
      <trkpt lat="43.194309" lon="-0.619296"/>
      <trkpt lat="43.194199" lon="-0.619257"/>
      <trkpt lat="43.193881" lon="-0.619155"/>
      <trkpt lat="43.193707" lon="-0.619107"/>
      <trkpt lat="43.193167" lon="-0.618986"/>
      <trkpt lat="43.193030" lon="-0.618955"/>
      <trkpt lat="43.192972" lon="-0.618946"/>
      <trkpt lat="43.192364" lon="-0.618895"/>
      <trkpt lat="43.192332" lon="-0.618889"/>
      <trkpt lat="43.192267" lon="-0.618874"/>
      <trkpt lat="43.192228" lon="-0.618855"/>
      <trkpt lat="43.192201" lon="-0.618838"/>
      <trkpt lat="43.192175" lon="-0.618817"/>
      <trkpt lat="43.191997" lon="-0.618653"/>
      <trkpt lat="43.191969" lon="-0.618634"/>
      <trkpt lat="43.191908" lon="-0.618611"/>
      <trkpt lat="43.191837" lon="-0.618676"/>
      <trkpt lat="43.191802" lon="-0.618711"/>
      <trkpt lat="43.191763" lon="-0.618748"/>
      <trkpt lat="43.191780" lon="-0.618826"/>
      <trkpt lat="43.191771" lon="-0.618904"/>
      <trkpt lat="43.191738" lon="-0.618970"/>
      <trkpt lat="43.191700" lon="-0.619003"/>
      <trkpt lat="43.191655" lon="-0.619017"/>
      <trkpt lat="43.191615" lon="-0.619011"/>
      <trkpt lat="43.191578" lon="-0.618988"/>
      <trkpt lat="43.191548" lon="-0.618951"/>
      <trkpt lat="43.191525" lon="-0.618893"/>
      <trkpt lat="43.191523" lon="-0.618869"/>
      <trkpt lat="43.191519" lon="-0.618827"/>
      <trkpt lat="43.191531" lon="-0.618763"/>
      <trkpt lat="43.191519" lon="-0.618494"/>
      <trkpt lat="43.191419" lon="-0.618316"/>
      <trkpt lat="43.191342" lon="-0.618240"/>
      <trkpt lat="43.191254" lon="-0.618156"/>
      <trkpt lat="43.191072" lon="-0.617998"/>
      <trkpt lat="43.191012" lon="-0.617948"/>
      <trkpt lat="43.191000" lon="-0.617939"/>
      <trkpt lat="43.190952" lon="-0.617898"/>
      <trkpt lat="43.190936" lon="-0.617885"/>
      <trkpt lat="43.190912" lon="-0.617864"/>
      <trkpt lat="43.190891" lon="-0.617847"/>
      <trkpt lat="43.190802" lon="-0.617772"/>
      <trkpt lat="43.190698" lon="-0.617685"/>
      <trkpt lat="43.190592" lon="-0.617604"/>
      <trkpt lat="43.190495" lon="-0.617563"/>
      <trkpt lat="43.190437" lon="-0.617555"/>
      <trkpt lat="43.190397" lon="-0.617550"/>
      <trkpt lat="43.190375" lon="-0.617566"/>
      <trkpt lat="43.190351" lon="-0.617575"/>
      <trkpt lat="43.190327" lon="-0.617575"/>
      <trkpt lat="43.190295" lon="-0.617561"/>
      <trkpt lat="43.190269" lon="-0.617534"/>
      <trkpt lat="43.190250" lon="-0.617497"/>
      <trkpt lat="43.190242" lon="-0.617457"/>
      <trkpt lat="43.190244" lon="-0.617416"/>
      <trkpt lat="43.190254" lon="-0.617377"/>
      <trkpt lat="43.190273" lon="-0.617344"/>
      <trkpt lat="43.190290" lon="-0.617326"/>
      <trkpt lat="43.190311" lon="-0.617314"/>
      <trkpt lat="43.190339" lon="-0.617214"/>
      <trkpt lat="43.190342" lon="-0.617204"/>
      <trkpt lat="43.190387" lon="-0.617022"/>
      <trkpt lat="43.190401" lon="-0.616983"/>
      <trkpt lat="43.190540" lon="-0.616586"/>
      <trkpt lat="43.190557" lon="-0.616538"/>
      <trkpt lat="43.191127" lon="-0.615155"/>
      <trkpt lat="43.191182" lon="-0.615020"/>
      <trkpt lat="43.191198" lon="-0.614981"/>
      <trkpt lat="43.191335" lon="-0.614666"/>
      <trkpt lat="43.191393" lon="-0.614529"/>
      <trkpt lat="43.191491" lon="-0.614333"/>
      <trkpt lat="43.191509" lon="-0.614298"/>
      <trkpt lat="43.191645" lon="-0.614079"/>
      <trkpt lat="43.191853" lon="-0.613782"/>
      <trkpt lat="43.192162" lon="-0.613448"/>
      <trkpt lat="43.192328" lon="-0.613295"/>
      <trkpt lat="43.192371" lon="-0.613254"/>
      <trkpt lat="43.192439" lon="-0.613196"/>
      <trkpt lat="43.192472" lon="-0.613128"/>
      <trkpt lat="43.192498" lon="-0.613072"/>
      <trkpt lat="43.192494" lon="-0.613061"/>
      <trkpt lat="43.192491" lon="-0.613051"/>
      <trkpt lat="43.192486" lon="-0.613029"/>
      <trkpt lat="43.192484" lon="-0.613007"/>
      <trkpt lat="43.192488" lon="-0.612981"/>
      <trkpt lat="43.192493" lon="-0.612953"/>
      <trkpt lat="43.192503" lon="-0.612933"/>
      <trkpt lat="43.192520" lon="-0.612911"/>
      <trkpt lat="43.192538" lon="-0.612898"/>
      <trkpt lat="43.192558" lon="-0.612891"/>
      <trkpt lat="43.192598" lon="-0.612897"/>
      <trkpt lat="43.192622" lon="-0.612916"/>
      <trkpt lat="43.192646" lon="-0.612959"/>
      <trkpt lat="43.192725" lon="-0.612906"/>
      <trkpt lat="43.192752" lon="-0.612889"/>
      <trkpt lat="43.193019" lon="-0.612711"/>
      <trkpt lat="43.193136" lon="-0.612612"/>
      <trkpt lat="43.193295" lon="-0.612477"/>
      <trkpt lat="43.193324" lon="-0.612452"/>
      <trkpt lat="43.193472" lon="-0.612327"/>
      <trkpt lat="43.193502" lon="-0.612302"/>
      <trkpt lat="43.193538" lon="-0.612271"/>
      <trkpt lat="43.193783" lon="-0.612082"/>
      <trkpt lat="43.193806" lon="-0.612064"/>
      <trkpt lat="43.193940" lon="-0.611961"/>
      <trkpt lat="43.194011" lon="-0.611867"/>
      <trkpt lat="43.194039" lon="-0.611830"/>
      <trkpt lat="43.194081" lon="-0.611773"/>
      <trkpt lat="43.194085" lon="-0.611694"/>
      <trkpt lat="43.194107" lon="-0.611620"/>
      <trkpt lat="43.194146" lon="-0.611562"/>
      <trkpt lat="43.194123" lon="-0.611539"/>
      <trkpt lat="43.194100" lon="-0.611517"/>
      <trkpt lat="43.193868" lon="-0.611263"/>
      <trkpt lat="43.193659" lon="-0.611059"/>
      <trkpt lat="43.193229" lon="-0.610657"/>
      <trkpt lat="43.193077" lon="-0.610514"/>
      <trkpt lat="43.192796" lon="-0.610251"/>
      <trkpt lat="43.192732" lon="-0.610187"/>
      <trkpt lat="43.192670" lon="-0.610126"/>
      <trkpt lat="43.192587" lon="-0.610020"/>
      <trkpt lat="43.192500" lon="-0.609855"/>
      <trkpt lat="43.192434" lon="-0.609713"/>
      <trkpt lat="43.192382" lon="-0.609572"/>
      <trkpt lat="43.192346" lon="-0.609458"/>
      <trkpt lat="43.192317" lon="-0.609367"/>
      <trkpt lat="43.192282" lon="-0.609212"/>
      <trkpt lat="43.192256" lon="-0.609064"/>
      <trkpt lat="43.192245" lon="-0.608883"/>
      <trkpt lat="43.192247" lon="-0.608604"/>
      <trkpt lat="43.192247" lon="-0.608169"/>
      <trkpt lat="43.192249" lon="-0.607886"/>
      <trkpt lat="43.192257" lon="-0.607459"/>
      <trkpt lat="43.192260" lon="-0.607412"/>
      <trkpt lat="43.192275" lon="-0.607298"/>
      <trkpt lat="43.192285" lon="-0.607230"/>
      <trkpt lat="43.192304" lon="-0.607149"/>
      <trkpt lat="43.192347" lon="-0.607007"/>
      <trkpt lat="43.192358" lon="-0.606964"/>
      <trkpt lat="43.192375" lon="-0.606917"/>
      <trkpt lat="43.192428" lon="-0.606702"/>
      <trkpt lat="43.192467" lon="-0.606433"/>
      <trkpt lat="43.192496" lon="-0.606289"/>
      <trkpt lat="43.192511" lon="-0.606258"/>
      <trkpt lat="43.192690" lon="-0.605973"/>
      <trkpt lat="43.192720" lon="-0.605930"/>
      <trkpt lat="43.192809" lon="-0.605798"/>
      <trkpt lat="43.192836" lon="-0.605759"/>
      <trkpt lat="43.192862" lon="-0.605720"/>
      <trkpt lat="43.192878" lon="-0.605696"/>
      <trkpt lat="43.192929" lon="-0.605623"/>
      <trkpt lat="43.192973" lon="-0.605459"/>
      <trkpt lat="43.192978" lon="-0.605440"/>
      <trkpt lat="43.192988" lon="-0.605404"/>
      <trkpt lat="43.193003" lon="-0.605348"/>
      <trkpt lat="43.193055" lon="-0.605210"/>
      <trkpt lat="43.193187" lon="-0.604869"/>
      <trkpt lat="43.193235" lon="-0.604742"/>
      <trkpt lat="43.193250" lon="-0.604633"/>
      <trkpt lat="43.193247" lon="-0.604565"/>
      <trkpt lat="43.193237" lon="-0.604501"/>
      <trkpt lat="43.193220" lon="-0.604473"/>
      <trkpt lat="43.193215" lon="-0.604438"/>
      <trkpt lat="43.193222" lon="-0.604404"/>
      <trkpt lat="43.193133" lon="-0.604328"/>
      <trkpt lat="43.193107" lon="-0.604300"/>
      <trkpt lat="43.192599" lon="-0.603752"/>
      <trkpt lat="43.192513" lon="-0.603600"/>
      <trkpt lat="43.192432" lon="-0.603406"/>
      <trkpt lat="43.192351" lon="-0.603211"/>
      <trkpt lat="43.192122" lon="-0.602648"/>
      <trkpt lat="43.191966" lon="-0.602288"/>
      <trkpt lat="43.191918" lon="-0.602176"/>
      <trkpt lat="43.191603" lon="-0.601431"/>
      <trkpt lat="43.190946" lon="-0.599883"/>
      <trkpt lat="43.190836" lon="-0.599587"/>
      <trkpt lat="43.190762" lon="-0.599330"/>
      <trkpt lat="43.190757" lon="-0.599310"/>
      <trkpt lat="43.190737" lon="-0.599232"/>
      <trkpt lat="43.190411" lon="-0.597840"/>
      <trkpt lat="43.189923" lon="-0.595774"/>
      <trkpt lat="43.189829" lon="-0.595374"/>
      <trkpt lat="43.189553" lon="-0.594203"/>
      <trkpt lat="43.189545" lon="-0.594169"/>
      <trkpt lat="43.189251" lon="-0.592965"/>
      <trkpt lat="43.189037" lon="-0.592094"/>
      <trkpt lat="43.188942" lon="-0.591768"/>
      <trkpt lat="43.188839" lon="-0.591455"/>
      <trkpt lat="43.187900" lon="-0.588851"/>
      <trkpt lat="43.187829" lon="-0.588655"/>
      <trkpt lat="43.187690" lon="-0.588247"/>
      <trkpt lat="43.187589" lon="-0.587972"/>
      <trkpt lat="43.187472" lon="-0.587733"/>
      <trkpt lat="43.187326" lon="-0.587531"/>
      <trkpt lat="43.187249" lon="-0.587473"/>
      <trkpt lat="43.187177" lon="-0.587423"/>
      <trkpt lat="43.187135" lon="-0.587395"/>
      <trkpt lat="43.187077" lon="-0.587391"/>
      <trkpt lat="43.187022" lon="-0.587363"/>
      <trkpt lat="43.186977" lon="-0.587313"/>
      <trkpt lat="43.186945" lon="-0.587245"/>
      <trkpt lat="43.186931" lon="-0.587168"/>
      <trkpt lat="43.186936" lon="-0.587088"/>
      <trkpt lat="43.186958" lon="-0.587014"/>
      <trkpt lat="43.186996" lon="-0.586954"/>
      <trkpt lat="43.187001" lon="-0.586828"/>
      <trkpt lat="43.187011" lon="-0.586544"/>
      <trkpt lat="43.186977" lon="-0.586354"/>
      <trkpt lat="43.186923" lon="-0.586140"/>
      <trkpt lat="43.186812" lon="-0.585829"/>
      <trkpt lat="43.186699" lon="-0.585518"/>
      <trkpt lat="43.186176" lon="-0.584058"/>
      <trkpt lat="43.185037" lon="-0.580904"/>
      <trkpt lat="43.185010" lon="-0.580844"/>
      <trkpt lat="43.184992" lon="-0.580807"/>
      <trkpt lat="43.184697" lon="-0.579930"/>
      <trkpt lat="43.184443" lon="-0.579202"/>
      <trkpt lat="43.182594" lon="-0.574006"/>
      <trkpt lat="43.181942" lon="-0.572243"/>
      <trkpt lat="43.181893" lon="-0.572106"/>
      <trkpt lat="43.181868" lon="-0.572037"/>
      <trkpt lat="43.181413" lon="-0.570814"/>
      <trkpt lat="43.181326" lon="-0.570586"/>
      <trkpt lat="43.181300" lon="-0.570509"/>
      <trkpt lat="43.179587" lon="-0.565603"/>
      <trkpt lat="43.178843" lon="-0.563470"/>
      <trkpt lat="43.178834" lon="-0.563439"/>
      <trkpt lat="43.178774" lon="-0.563220"/>
      <trkpt lat="43.178711" lon="-0.562883"/>
      <trkpt lat="43.178688" lon="-0.562700"/>
      <trkpt lat="43.178672" lon="-0.562520"/>
      <trkpt lat="43.178660" lon="-0.562130"/>
      <trkpt lat="43.178633" lon="-0.561753"/>
      <trkpt lat="43.178565" lon="-0.561452"/>
      <trkpt lat="43.178440" lon="-0.560916"/>
      <trkpt lat="43.178084" lon="-0.559488"/>
      <trkpt lat="43.177551" lon="-0.557465"/>
      <trkpt lat="43.177532" lon="-0.557393"/>
      <trkpt lat="43.177287" lon="-0.556559"/>
      <trkpt lat="43.177254" lon="-0.556410"/>
      <trkpt lat="43.177219" lon="-0.556284"/>
      <trkpt lat="43.177148" lon="-0.556018"/>
      <trkpt lat="43.177022" lon="-0.555542"/>
      <trkpt lat="43.176634" lon="-0.554086"/>
      <trkpt lat="43.176529" lon="-0.553702"/>
      <trkpt lat="43.176397" lon="-0.553210"/>
      <trkpt lat="43.175881" lon="-0.551308"/>
      <trkpt lat="43.175855" lon="-0.551216"/>
      <trkpt lat="43.175613" lon="-0.550338"/>
      <trkpt lat="43.175291" lon="-0.549210"/>
      <trkpt lat="43.175204" lon="-0.548900"/>
      <trkpt lat="43.174989" lon="-0.548129"/>
      <trkpt lat="43.174434" lon="-0.546060"/>
      <trkpt lat="43.174257" lon="-0.545416"/>
      <trkpt lat="43.174194" lon="-0.545186"/>
      <trkpt lat="43.173704" lon="-0.543350"/>
      <trkpt lat="43.173646" lon="-0.543071"/>
      <trkpt lat="43.173613" lon="-0.542879"/>
      <trkpt lat="43.173586" lon="-0.542681"/>
      <trkpt lat="43.173576" lon="-0.542567"/>
      <trkpt lat="43.173568" lon="-0.542439"/>
      <trkpt lat="43.173552" lon="-0.542125"/>
      <trkpt lat="43.173552" lon="-0.541936"/>
      <trkpt lat="43.173563" lon="-0.541735"/>
      <trkpt lat="43.173587" lon="-0.541512"/>
      <trkpt lat="43.173613" lon="-0.541297"/>
      <trkpt lat="43.173680" lon="-0.540831"/>
      <trkpt lat="43.173796" lon="-0.540135"/>
      <trkpt lat="43.173899" lon="-0.539525"/>
      <trkpt lat="43.173942" lon="-0.539262"/>
      <trkpt lat="43.173970" lon="-0.538995"/>
      <trkpt lat="43.173985" lon="-0.538690"/>
      <trkpt lat="43.173990" lon="-0.538327"/>
      <trkpt lat="43.173960" lon="-0.538077"/>
      <trkpt lat="43.173883" lon="-0.537676"/>
      <trkpt lat="43.173777" lon="-0.537334"/>
      <trkpt lat="43.173671" lon="-0.537035"/>
      <trkpt lat="43.173545" lon="-0.536804"/>
      <trkpt lat="43.173108" lon="-0.536063"/>
      <trkpt lat="43.172678" lon="-0.535325"/>
      <trkpt lat="43.172579" lon="-0.535150"/>
      <trkpt lat="43.172499" lon="-0.535018"/>
      <trkpt lat="43.172420" lon="-0.534905"/>
      <trkpt lat="43.172370" lon="-0.534843"/>
      <trkpt lat="43.172333" lon="-0.534808"/>
      <trkpt lat="43.172260" lon="-0.534764"/>
      <trkpt lat="43.172235" lon="-0.534765"/>
      <trkpt lat="43.172210" lon="-0.534760"/>
      <trkpt lat="43.172186" lon="-0.534750"/>
      <trkpt lat="43.172153" lon="-0.534724"/>
      <trkpt lat="43.172126" lon="-0.534688"/>
      <trkpt lat="43.172106" lon="-0.534643"/>
      <trkpt lat="43.172096" lon="-0.534593"/>
      <trkpt lat="43.172094" lon="-0.534555"/>
      <trkpt lat="43.172098" lon="-0.534518"/>
      <trkpt lat="43.172107" lon="-0.534482"/>
      <trkpt lat="43.172094" lon="-0.534413"/>
      <trkpt lat="43.172078" lon="-0.534349"/>
      <trkpt lat="43.172052" lon="-0.534279"/>
      <trkpt lat="43.171975" lon="-0.534111"/>
      <trkpt lat="43.171543" lon="-0.533332"/>
      <trkpt lat="43.171099" lon="-0.532562"/>
      <trkpt lat="43.170876" lon="-0.532128"/>
      <trkpt lat="43.170636" lon="-0.531541"/>
      <trkpt lat="43.170503" lon="-0.531117"/>
      <trkpt lat="43.170492" lon="-0.531079"/>
      <trkpt lat="43.170358" lon="-0.530628"/>
      <trkpt lat="43.170231" lon="-0.530169"/>
      <trkpt lat="43.170149" lon="-0.529865"/>
      <trkpt lat="43.170058" lon="-0.529526"/>
      <trkpt lat="43.169846" lon="-0.528666"/>
      <trkpt lat="43.169660" lon="-0.527591"/>
      <trkpt lat="43.169578" lon="-0.527222"/>
      <trkpt lat="43.169483" lon="-0.526930"/>
      <trkpt lat="43.169378" lon="-0.526679"/>
      <trkpt lat="43.169263" lon="-0.526467"/>
      <trkpt lat="43.169127" lon="-0.526252"/>
      <trkpt lat="43.168985" lon="-0.526075"/>
      <trkpt lat="43.168831" lon="-0.525907"/>
      <trkpt lat="43.168614" lon="-0.525681"/>
      <trkpt lat="43.168455" lon="-0.525516"/>
      <trkpt lat="43.168309" lon="-0.525322"/>
      <trkpt lat="43.168188" lon="-0.525123"/>
      <trkpt lat="43.168079" lon="-0.524892"/>
      <trkpt lat="43.167979" lon="-0.524620"/>
      <trkpt lat="43.167901" lon="-0.524365"/>
      <trkpt lat="43.167826" lon="-0.524015"/>
      <trkpt lat="43.167762" lon="-0.523621"/>
      <trkpt lat="43.167670" lon="-0.523130"/>
      <trkpt lat="43.167310" lon="-0.521407"/>
      <trkpt lat="43.167300" lon="-0.521360"/>
      <trkpt lat="43.165988" lon="-0.514995"/>
      <trkpt lat="43.165719" lon="-0.513747"/>
      <trkpt lat="43.164482" lon="-0.507772"/>
      <trkpt lat="43.164169" lon="-0.506262"/>
      <trkpt lat="43.163055" lon="-0.500891"/>
      <trkpt lat="43.162925" lon="-0.500262"/>
      <trkpt lat="43.162913" lon="-0.500208"/>
      <trkpt lat="43.162880" lon="-0.500045"/>
      <trkpt lat="43.162733" lon="-0.499316"/>
      <trkpt lat="43.162451" lon="-0.497906"/>
      <trkpt lat="43.162336" lon="-0.497206"/>
      <trkpt lat="43.162270" lon="-0.497051"/>
      <trkpt lat="43.162260" lon="-0.497049"/>
      <trkpt lat="43.162234" lon="-0.497033"/>
      <trkpt lat="43.162212" lon="-0.497006"/>
      <trkpt lat="43.162196" lon="-0.496973"/>
      <trkpt lat="43.162189" lon="-0.496935"/>
      <trkpt lat="43.162189" lon="-0.496925"/>
      <trkpt lat="43.162189" lon="-0.496895"/>
      <trkpt lat="43.162198" lon="-0.496857"/>
      <trkpt lat="43.162214" lon="-0.496825"/>
      <trkpt lat="43.162241" lon="-0.496796"/>
      <trkpt lat="43.162249" lon="-0.496611"/>
      <trkpt lat="43.162084" lon="-0.495489"/>
      <trkpt lat="43.161621" lon="-0.492409"/>
      <trkpt lat="43.161567" lon="-0.492033"/>
      <trkpt lat="43.161241" lon="-0.489794"/>
      <trkpt lat="43.161176" lon="-0.489347"/>
      <trkpt lat="43.161089" lon="-0.488724"/>
      <trkpt lat="43.161055" lon="-0.488472"/>
      <trkpt lat="43.160902" lon="-0.487344"/>
      <trkpt lat="43.160850" lon="-0.486989"/>
      <trkpt lat="43.160783" lon="-0.486488"/>
      <trkpt lat="43.160748" lon="-0.486228"/>
      <trkpt lat="43.160694" lon="-0.485809"/>
      <trkpt lat="43.160577" lon="-0.485029"/>
      <trkpt lat="43.160489" lon="-0.484444"/>
      <trkpt lat="43.160423" lon="-0.483831"/>
      <trkpt lat="43.160385" lon="-0.483472"/>
      <trkpt lat="43.160365" lon="-0.483220"/>
      <trkpt lat="43.160336" lon="-0.482677"/>
      <trkpt lat="43.160330" lon="-0.482019"/>
      <trkpt lat="43.160330" lon="-0.481880"/>
      <trkpt lat="43.160332" lon="-0.477688"/>
      <trkpt lat="43.160333" lon="-0.477412"/>
      <trkpt lat="43.160333" lon="-0.476768"/>
      <trkpt lat="43.160315" lon="-0.476021"/>
      <trkpt lat="43.160319" lon="-0.473694"/>
      <trkpt lat="43.160312" lon="-0.473049"/>
      <trkpt lat="43.160310" lon="-0.472650"/>
      <trkpt lat="43.160283" lon="-0.469463"/>
      <trkpt lat="43.160286" lon="-0.468136"/>
      <trkpt lat="43.160284" lon="-0.466635"/>
      <trkpt lat="43.160288" lon="-0.465920"/>
      <trkpt lat="43.160286" lon="-0.465192"/>
      <trkpt lat="43.160288" lon="-0.464662"/>
      <trkpt lat="43.160289" lon="-0.463646"/>
      <trkpt lat="43.160299" lon="-0.463331"/>
      <trkpt lat="43.160329" lon="-0.462830"/>
      <trkpt lat="43.160352" lon="-0.462540"/>
      <trkpt lat="43.160383" lon="-0.462286"/>
      <trkpt lat="43.160502" lon="-0.461622"/>
      <trkpt lat="43.160637" lon="-0.461058"/>
      <trkpt lat="43.160788" lon="-0.460552"/>
      <trkpt lat="43.160987" lon="-0.460082"/>
      <trkpt lat="43.161543" lon="-0.458967"/>
      <trkpt lat="43.161716" lon="-0.458547"/>
      <trkpt lat="43.161762" lon="-0.458422"/>
      <trkpt lat="43.161806" lon="-0.458267"/>
      <trkpt lat="43.161859" lon="-0.458030"/>
      <trkpt lat="43.161883" lon="-0.457896"/>
      <trkpt lat="43.161895" lon="-0.457769"/>
      <trkpt lat="43.161896" lon="-0.457560"/>
      <trkpt lat="43.161887" lon="-0.457284"/>
      <trkpt lat="43.161886" lon="-0.457241"/>
      <trkpt lat="43.161847" lon="-0.456045"/>
      <trkpt lat="43.161866" lon="-0.455608"/>
      <trkpt lat="43.161976" lon="-0.453820"/>
      <trkpt lat="43.162004" lon="-0.453538"/>
      <trkpt lat="43.161995" lon="-0.453350"/>
      <trkpt lat="43.162022" lon="-0.453142"/>
      <trkpt lat="43.162046" lon="-0.453000"/>
      <trkpt lat="43.162107" lon="-0.452727"/>
      <trkpt lat="43.162225" lon="-0.452291"/>
      <trkpt lat="43.162289" lon="-0.452097"/>
      <trkpt lat="43.162407" lon="-0.451698"/>
      <trkpt lat="43.162458" lon="-0.451527"/>
      <trkpt lat="43.162464" lon="-0.451505"/>
      <trkpt lat="43.162489" lon="-0.451418"/>
      <trkpt lat="43.162500" lon="-0.451381"/>
      <trkpt lat="43.162611" lon="-0.450980"/>
      <trkpt lat="43.162681" lon="-0.450789"/>
      <trkpt lat="43.162725" lon="-0.450691"/>
      <trkpt lat="43.162747" lon="-0.450647"/>
      <trkpt lat="43.162809" lon="-0.450527"/>
      <trkpt lat="43.162955" lon="-0.450282"/>
      <trkpt lat="43.163026" lon="-0.450146"/>
      <trkpt lat="43.163087" lon="-0.450001"/>
      <trkpt lat="43.163127" lon="-0.449872"/>
      <trkpt lat="43.163159" lon="-0.449740"/>
      <trkpt lat="43.163211" lon="-0.449528"/>
      <trkpt lat="43.163260" lon="-0.449298"/>
      <trkpt lat="43.163319" lon="-0.449048"/>
      <trkpt lat="43.163406" lon="-0.448871"/>
      <trkpt lat="43.163467" lon="-0.448754"/>
      <trkpt lat="43.163555" lon="-0.448598"/>
      <trkpt lat="43.163853" lon="-0.448171"/>
      <trkpt lat="43.164082" lon="-0.447824"/>
      <trkpt lat="43.164142" lon="-0.447724"/>
      <trkpt lat="43.164202" lon="-0.447598"/>
      <trkpt lat="43.164262" lon="-0.447429"/>
      <trkpt lat="43.164312" lon="-0.447258"/>
      <trkpt lat="43.164388" lon="-0.446878"/>
      <trkpt lat="43.164478" lon="-0.446190"/>
      <trkpt lat="43.164497" lon="-0.445932"/>
      <trkpt lat="43.164480" lon="-0.445446"/>
      <trkpt lat="43.164479" lon="-0.445354"/>
      <trkpt lat="43.164474" lon="-0.445112"/>
      <trkpt lat="43.164487" lon="-0.444867"/>
      <trkpt lat="43.164520" lon="-0.444571"/>
      <trkpt lat="43.164554" lon="-0.444334"/>
      <trkpt lat="43.164588" lon="-0.444106"/>
      <trkpt lat="43.164702" lon="-0.443350"/>
      <trkpt lat="43.164766" lon="-0.443033"/>
      <trkpt lat="43.164827" lon="-0.442817"/>
      <trkpt lat="43.164876" lon="-0.442682"/>
      <trkpt lat="43.164911" lon="-0.442586"/>
      <trkpt lat="43.165085" lon="-0.442239"/>
      <trkpt lat="43.165287" lon="-0.441958"/>
      <trkpt lat="43.165445" lon="-0.441795"/>
      <trkpt lat="43.165627" lon="-0.441657"/>
      <trkpt lat="43.165805" lon="-0.441557"/>
      <trkpt lat="43.166032" lon="-0.441473"/>
      <trkpt lat="43.166324" lon="-0.441421"/>
      <trkpt lat="43.167479" lon="-0.441379"/>
      <trkpt lat="43.169889" lon="-0.441298"/>
      <trkpt lat="43.170202" lon="-0.441332"/>
      <trkpt lat="43.170519" lon="-0.441397"/>
      <trkpt lat="43.170694" lon="-0.441446"/>
      <trkpt lat="43.171030" lon="-0.441528"/>
      <trkpt lat="43.171148" lon="-0.441541"/>
      <trkpt lat="43.171331" lon="-0.441546"/>
      <trkpt lat="43.171575" lon="-0.441509"/>
      <trkpt lat="43.171740" lon="-0.441464"/>
      <trkpt lat="43.171927" lon="-0.441377"/>
      <trkpt lat="43.172105" lon="-0.441263"/>
      <trkpt lat="43.172280" lon="-0.441117"/>
      <trkpt lat="43.172425" lon="-0.440976"/>
      <trkpt lat="43.172565" lon="-0.440801"/>
      <trkpt lat="43.172664" lon="-0.440643"/>
      <trkpt lat="43.172753" lon="-0.440503"/>
      <trkpt lat="43.173809" lon="-0.438591"/>
      <trkpt lat="43.173972" lon="-0.438267"/>
      <trkpt lat="43.174101" lon="-0.437908"/>
      <trkpt lat="43.174167" lon="-0.437639"/>
      <trkpt lat="43.174500" lon="-0.436293"/>
      <trkpt lat="43.174720" lon="-0.435385"/>
      <trkpt lat="43.174869" lon="-0.434667"/>
      <trkpt lat="43.174877" lon="-0.434625"/>
      <trkpt lat="43.175042" lon="-0.433856"/>
      <trkpt lat="43.175057" lon="-0.433786"/>
      <trkpt lat="43.175097" lon="-0.433637"/>
      <trkpt lat="43.175243" lon="-0.433088"/>
      <trkpt lat="43.175329" lon="-0.432764"/>
      <trkpt lat="43.175505" lon="-0.432107"/>
      <trkpt lat="43.175715" lon="-0.431288"/>
      <trkpt lat="43.175891" lon="-0.430777"/>
      <trkpt lat="43.175996" lon="-0.430538"/>
      <trkpt lat="43.176111" lon="-0.430326"/>
      <trkpt lat="43.176195" lon="-0.430175"/>
      <trkpt lat="43.176341" lon="-0.429960"/>
      <trkpt lat="43.176567" lon="-0.429714"/>
      <trkpt lat="43.176819" lon="-0.429486"/>
      <trkpt lat="43.177063" lon="-0.429355"/>
      <trkpt lat="43.177213" lon="-0.429314"/>
      <trkpt lat="43.177643" lon="-0.429278"/>
      <trkpt lat="43.177785" lon="-0.429277"/>
      <trkpt lat="43.177995" lon="-0.429250"/>
      <trkpt lat="43.178156" lon="-0.429219"/>
      <trkpt lat="43.178312" lon="-0.429174"/>
      <trkpt lat="43.178470" lon="-0.429115"/>
      <trkpt lat="43.178676" lon="-0.429022"/>
      <trkpt lat="43.179097" lon="-0.428844"/>
      <trkpt lat="43.179707" lon="-0.428594"/>
      <trkpt lat="43.179887" lon="-0.428551"/>
      <trkpt lat="43.180072" lon="-0.428537"/>
      <trkpt lat="43.180253" lon="-0.428572"/>
      <trkpt lat="43.180431" lon="-0.428658"/>
      <trkpt lat="43.180627" lon="-0.428795"/>
      <trkpt lat="43.180747" lon="-0.428951"/>
      <trkpt lat="43.180858" lon="-0.429134"/>
      <trkpt lat="43.181327" lon="-0.430037"/>
      <trkpt lat="43.181510" lon="-0.430318"/>
      <trkpt lat="43.181742" lon="-0.430582"/>
      <trkpt lat="43.182039" lon="-0.430872"/>
      <trkpt lat="43.182407" lon="-0.431172"/>
      <trkpt lat="43.182641" lon="-0.431287"/>
      <trkpt lat="43.182843" lon="-0.431348"/>
      <trkpt lat="43.182979" lon="-0.431355"/>
      <trkpt lat="43.183109" lon="-0.431342"/>
      <trkpt lat="43.183289" lon="-0.431313"/>
      <trkpt lat="43.183490" lon="-0.431242"/>
      <trkpt lat="43.184287" lon="-0.430887"/>
      <trkpt lat="43.184635" lon="-0.430768"/>
      <trkpt lat="43.185058" lon="-0.430560"/>
      <trkpt lat="43.185549" lon="-0.430392"/>
      <trkpt lat="43.185915" lon="-0.430309"/>
      <trkpt lat="43.185969" lon="-0.430291"/>
      <trkpt lat="43.186515" lon="-0.430182"/>
      <trkpt lat="43.187027" lon="-0.430080"/>
      <trkpt lat="43.187226" lon="-0.429997"/>
      <trkpt lat="43.187395" lon="-0.429909"/>
      <trkpt lat="43.187567" lon="-0.429751"/>
      <trkpt lat="43.187706" lon="-0.429596"/>
      <trkpt lat="43.187894" lon="-0.429291"/>
      <trkpt lat="43.188251" lon="-0.428543"/>
      <trkpt lat="43.188460" lon="-0.428175"/>
      <trkpt lat="43.188641" lon="-0.427892"/>
      <trkpt lat="43.189041" lon="-0.427326"/>
      <trkpt lat="43.189308" lon="-0.427047"/>
      <trkpt lat="43.189510" lon="-0.426919"/>
      <trkpt lat="43.189743" lon="-0.426802"/>
      <trkpt lat="43.189989" lon="-0.426684"/>
      <trkpt lat="43.190318" lon="-0.426518"/>
      <trkpt lat="43.190783" lon="-0.426313"/>
      <trkpt lat="43.191154" lon="-0.426132"/>
      <trkpt lat="43.191715" lon="-0.425966"/>
      <trkpt lat="43.191886" lon="-0.425911"/>
      <trkpt lat="43.192265" lon="-0.425805"/>
      <trkpt lat="43.192753" lon="-0.425746"/>
      <trkpt lat="43.192935" lon="-0.425725"/>
      <trkpt lat="43.193457" lon="-0.425612"/>
      <trkpt lat="43.193796" lon="-0.425459"/>
      <trkpt lat="43.194270" lon="-0.425187"/>
      <trkpt lat="43.196381" lon="-0.423952"/>
      <trkpt lat="43.196782" lon="-0.423718"/>
      <trkpt lat="43.197598" lon="-0.423217"/>
      <trkpt lat="43.197822" lon="-0.423104"/>
      <trkpt lat="43.198096" lon="-0.423061"/>
      <trkpt lat="43.198308" lon="-0.423076"/>
      <trkpt lat="43.199205" lon="-0.423230"/>
      <trkpt lat="43.199395" lon="-0.423237"/>
      <trkpt lat="43.199588" lon="-0.423224"/>
      <trkpt lat="43.199733" lon="-0.423163"/>
      <trkpt lat="43.199864" lon="-0.423073"/>
      <trkpt lat="43.200056" lon="-0.422844"/>
      <trkpt lat="43.200359" lon="-0.422414"/>
      <trkpt lat="43.200590" lon="-0.422087"/>
      <trkpt lat="43.200723" lon="-0.421852"/>
      <trkpt lat="43.200813" lon="-0.421616"/>
      <trkpt lat="43.200878" lon="-0.421268"/>
      <trkpt lat="43.200979" lon="-0.420142"/>
      <trkpt lat="43.201026" lon="-0.419961"/>
      <trkpt lat="43.201089" lon="-0.419818"/>
      <trkpt lat="43.201178" lon="-0.419693"/>
      <trkpt lat="43.201385" lon="-0.419492"/>
      <trkpt lat="43.201410" lon="-0.419468"/>
      <trkpt lat="43.201635" lon="-0.419257"/>
      <trkpt lat="43.201699" lon="-0.419131"/>
      <trkpt lat="43.201731" lon="-0.418991"/>
      <trkpt lat="43.201749" lon="-0.418790"/>
      <trkpt lat="43.201747" lon="-0.418623"/>
      <trkpt lat="43.201702" lon="-0.418167"/>
      <trkpt lat="43.201696" lon="-0.417922"/>
      <trkpt lat="43.201716" lon="-0.417706"/>
      <trkpt lat="43.201830" lon="-0.417282"/>
      <trkpt lat="43.202033" lon="-0.416672"/>
      <trkpt lat="43.202205" lon="-0.416253"/>
      <trkpt lat="43.202432" lon="-0.415805"/>
      <trkpt lat="43.202742" lon="-0.415334"/>
      <trkpt lat="43.203319" lon="-0.414725"/>
      <trkpt lat="43.203435" lon="-0.414562"/>
      <trkpt lat="43.203529" lon="-0.414362"/>
      <trkpt lat="43.203574" lon="-0.414195"/>
      <trkpt lat="43.203581" lon="-0.413934"/>
      <trkpt lat="43.203536" lon="-0.413373"/>
      <trkpt lat="43.203570" lon="-0.413121"/>
      <trkpt lat="43.203626" lon="-0.412885"/>
      <trkpt lat="43.203744" lon="-0.412476"/>
      <trkpt lat="43.203774" lon="-0.412232"/>
      <trkpt lat="43.203780" lon="-0.411816"/>
      <trkpt lat="43.203810" lon="-0.411608"/>
      <trkpt lat="43.203855" lon="-0.411420"/>
      <trkpt lat="43.203974" lon="-0.411163"/>
      <trkpt lat="43.204162" lon="-0.410917"/>
      <trkpt lat="43.204552" lon="-0.410474"/>
      <trkpt lat="43.204984" lon="-0.410027"/>
      <trkpt lat="43.205532" lon="-0.409578"/>
      <trkpt lat="43.206429" lon="-0.408904"/>
      <trkpt lat="43.206665" lon="-0.408728"/>
      <trkpt lat="43.206816" lon="-0.408585"/>
      <trkpt lat="43.206909" lon="-0.408494"/>
      <trkpt lat="43.207098" lon="-0.408261"/>
      <trkpt lat="43.207201" lon="-0.408104"/>
      <trkpt lat="43.207410" lon="-0.407725"/>
      <trkpt lat="43.207551" lon="-0.407493"/>
      <trkpt lat="43.207672" lon="-0.407339"/>
      <trkpt lat="43.207804" lon="-0.407182"/>
      <trkpt lat="43.208128" lon="-0.406965"/>
      <trkpt lat="43.208828" lon="-0.406624"/>
      <trkpt lat="43.208936" lon="-0.406565"/>
      <trkpt lat="43.209093" lon="-0.406474"/>
      <trkpt lat="43.210516" lon="-0.405670"/>
      <trkpt lat="43.211333" lon="-0.405208"/>
      <trkpt lat="43.211935" lon="-0.404866"/>
      <trkpt lat="43.213056" lon="-0.404241"/>
      <trkpt lat="43.215180" lon="-0.403068"/>
      <trkpt lat="43.215744" lon="-0.402747"/>
      <trkpt lat="43.215809" lon="-0.402710"/>
      <trkpt lat="43.216410" lon="-0.402362"/>
      <trkpt lat="43.217717" lon="-0.401590"/>
      <trkpt lat="43.218025" lon="-0.401398"/>
      <trkpt lat="43.218302" lon="-0.401230"/>
      <trkpt lat="43.218434" lon="-0.401143"/>
      <trkpt lat="43.218579" lon="-0.401031"/>
      <trkpt lat="43.218751" lon="-0.400871"/>
      <trkpt lat="43.219055" lon="-0.400538"/>
      <trkpt lat="43.219319" lon="-0.400221"/>
      <trkpt lat="43.219535" lon="-0.399942"/>
      <trkpt lat="43.219609" lon="-0.399846"/>
      <trkpt lat="43.220081" lon="-0.399236"/>
      <trkpt lat="43.220380" lon="-0.398860"/>
      <trkpt lat="43.220429" lon="-0.398798"/>
      <trkpt lat="43.220607" lon="-0.398585"/>
      <trkpt lat="43.220742" lon="-0.398423"/>
      <trkpt lat="43.221094" lon="-0.398022"/>
      <trkpt lat="43.221380" lon="-0.397676"/>
      <trkpt lat="43.221687" lon="-0.397288"/>
      <trkpt lat="43.222014" lon="-0.396803"/>
      <trkpt lat="43.222479" lon="-0.396081"/>
      <trkpt lat="43.222700" lon="-0.395791"/>
      <trkpt lat="43.223549" lon="-0.394624"/>
      <trkpt lat="43.223859" lon="-0.394183"/>
      <trkpt lat="43.224021" lon="-0.393788"/>
      <trkpt lat="43.224068" lon="-0.393675"/>
      <trkpt lat="43.224055" lon="-0.393548"/>
      <trkpt lat="43.224087" lon="-0.393420"/>
      <trkpt lat="43.224116" lon="-0.393371"/>
      <trkpt lat="43.224191" lon="-0.393304"/>
      <trkpt lat="43.224281" lon="-0.393288"/>
      <trkpt lat="43.224348" lon="-0.393311"/>
      <trkpt lat="43.224500" lon="-0.393206"/>
      <trkpt lat="43.224768" lon="-0.392916"/>
      <trkpt lat="43.224859" lon="-0.392796"/>
      <trkpt lat="43.224993" lon="-0.392624"/>
      <trkpt lat="43.225230" lon="-0.392348"/>
      <trkpt lat="43.225398" lon="-0.392179"/>
      <trkpt lat="43.225590" lon="-0.392013"/>
      <trkpt lat="43.225721" lon="-0.391911"/>
      <trkpt lat="43.225908" lon="-0.391800"/>
      <trkpt lat="43.226093" lon="-0.391703"/>
      <trkpt lat="43.226215" lon="-0.391645"/>
      <trkpt lat="43.226378" lon="-0.391586"/>
      <trkpt lat="43.226538" lon="-0.391538"/>
      <trkpt lat="43.226698" lon="-0.391503"/>
      <trkpt lat="43.226938" lon="-0.391480"/>
      <trkpt lat="43.227118" lon="-0.391474"/>
      <trkpt lat="43.227332" lon="-0.391498"/>
      <trkpt lat="43.227525" lon="-0.391521"/>
      <trkpt lat="43.228014" lon="-0.391633"/>
      <trkpt lat="43.228245" lon="-0.391682"/>
      <trkpt lat="43.228603" lon="-0.391731"/>
      <trkpt lat="43.228758" lon="-0.391742"/>
      <trkpt lat="43.229151" lon="-0.391741"/>
      <trkpt lat="43.229431" lon="-0.391738"/>
      <trkpt lat="43.230238" lon="-0.391717"/>
      <trkpt lat="43.230673" lon="-0.391683"/>
      <trkpt lat="43.230976" lon="-0.391636"/>
      <trkpt lat="43.231220" lon="-0.391598"/>
      <trkpt lat="43.231442" lon="-0.391579"/>
      <trkpt lat="43.231845" lon="-0.391572"/>
      <trkpt lat="43.232289" lon="-0.391585"/>
      <trkpt lat="43.232538" lon="-0.391593"/>
      <trkpt lat="43.233186" lon="-0.391613"/>
      <trkpt lat="43.233681" lon="-0.391633"/>
      <trkpt lat="43.234304" lon="-0.391655"/>
      <trkpt lat="43.234664" lon="-0.391677"/>
      <trkpt lat="43.234817" lon="-0.391692"/>
      <trkpt lat="43.234969" lon="-0.391711"/>
      <trkpt lat="43.235105" lon="-0.391731"/>
      <trkpt lat="43.235348" lon="-0.391774"/>
      <trkpt lat="43.235652" lon="-0.391819"/>
      <trkpt lat="43.235844" lon="-0.391840"/>
      <trkpt lat="43.235988" lon="-0.391845"/>
      <trkpt lat="43.236120" lon="-0.391844"/>
      <trkpt lat="43.236247" lon="-0.391839"/>
      <trkpt lat="43.236395" lon="-0.391821"/>
      <trkpt lat="43.236493" lon="-0.391805"/>
      <trkpt lat="43.236586" lon="-0.391787"/>
      <trkpt lat="43.236772" lon="-0.391740"/>
      <trkpt lat="43.236925" lon="-0.391694"/>
      <trkpt lat="43.237087" lon="-0.391629"/>
      <trkpt lat="43.237264" lon="-0.391550"/>
      <trkpt lat="43.237448" lon="-0.391451"/>
      <trkpt lat="43.237583" lon="-0.391366"/>
      <trkpt lat="43.237716" lon="-0.391273"/>
      <trkpt lat="43.237931" lon="-0.391106"/>
      <trkpt lat="43.238089" lon="-0.390966"/>
      <trkpt lat="43.238244" lon="-0.390811"/>
      <trkpt lat="43.238386" lon="-0.390655"/>
      <trkpt lat="43.238535" lon="-0.390473"/>
      <trkpt lat="43.238711" lon="-0.390230"/>
      <trkpt lat="43.238889" lon="-0.389956"/>
      <trkpt lat="43.239031" lon="-0.389722"/>
      <trkpt lat="43.239212" lon="-0.389429"/>
      <trkpt lat="43.239487" lon="-0.388987"/>
      <trkpt lat="43.239692" lon="-0.388656"/>
      <trkpt lat="43.239847" lon="-0.388416"/>
      <trkpt lat="43.240018" lon="-0.388150"/>
      <trkpt lat="43.240258" lon="-0.387795"/>
      <trkpt lat="43.240392" lon="-0.387620"/>
      <trkpt lat="43.240520" lon="-0.387470"/>
      <trkpt lat="43.240667" lon="-0.387317"/>
      <trkpt lat="43.240940" lon="-0.387089"/>
      <trkpt lat="43.241191" lon="-0.386925"/>
      <trkpt lat="43.241505" lon="-0.386766"/>
      <trkpt lat="43.241997" lon="-0.386652"/>
      <trkpt lat="43.242203" lon="-0.386645"/>
      <trkpt lat="43.242599" lon="-0.386678"/>
      <trkpt lat="43.243086" lon="-0.386818"/>
      <trkpt lat="43.243311" lon="-0.386944"/>
      <trkpt lat="43.243522" lon="-0.387068"/>
      <trkpt lat="43.243823" lon="-0.387318"/>
      <trkpt lat="43.244177" lon="-0.387653"/>
      <trkpt lat="43.244488" lon="-0.387904"/>
      <trkpt lat="43.244705" lon="-0.388053"/>
      <trkpt lat="43.244813" lon="-0.388123"/>
      <trkpt lat="43.245091" lon="-0.388269"/>
      <trkpt lat="43.245532" lon="-0.388433"/>
      <trkpt lat="43.246061" lon="-0.388411"/>
      <trkpt lat="43.246155" lon="-0.388384"/>
      <trkpt lat="43.246208" lon="-0.388247"/>
      <trkpt lat="43.246265" lon="-0.388181"/>
      <trkpt lat="43.246334" lon="-0.388140"/>
      <trkpt lat="43.246408" lon="-0.388128"/>
      <trkpt lat="43.246461" lon="-0.388139"/>
      <trkpt lat="43.246512" lon="-0.388164"/>
      <trkpt lat="43.246558" lon="-0.388204"/>
      <trkpt lat="43.246596" lon="-0.388256"/>
      <trkpt lat="43.246726" lon="-0.388281"/>
      <trkpt lat="43.246850" lon="-0.388259"/>
      <trkpt lat="43.247087" lon="-0.388191"/>
      <trkpt lat="43.247234" lon="-0.388160"/>
      <trkpt lat="43.247411" lon="-0.388153"/>
      <trkpt lat="43.247594" lon="-0.388171"/>
      <trkpt lat="43.247730" lon="-0.388218"/>
      <trkpt lat="43.248206" lon="-0.388312"/>
      <trkpt lat="43.251834" lon="-0.389152"/>
      <trkpt lat="43.253594" lon="-0.389525"/>
      <trkpt lat="43.253653" lon="-0.389539"/>
      <trkpt lat="43.253759" lon="-0.389560"/>
      <trkpt lat="43.253791" lon="-0.389567"/>
      <trkpt lat="43.254085" lon="-0.389620"/>
      <trkpt lat="43.254164" lon="-0.389635"/>
      <trkpt lat="43.254236" lon="-0.389648"/>
      <trkpt lat="43.254529" lon="-0.389713"/>
      <trkpt lat="43.255147" lon="-0.389846"/>
      <trkpt lat="43.256445" lon="-0.390146"/>
      <trkpt lat="43.256495" lon="-0.390157"/>
      <trkpt lat="43.256982" lon="-0.390270"/>
      <trkpt lat="43.257808" lon="-0.390460"/>
      <trkpt lat="43.258493" lon="-0.390619"/>
      <trkpt lat="43.258678" lon="-0.390648"/>
      <trkpt lat="43.258824" lon="-0.390666"/>
      <trkpt lat="43.258866" lon="-0.390671"/>
      <trkpt lat="43.259016" lon="-0.390688"/>
      <trkpt lat="43.259185" lon="-0.390684"/>
      <trkpt lat="43.259568" lon="-0.390640"/>
      <trkpt lat="43.261783" lon="-0.390330"/>
      <trkpt lat="43.262182" lon="-0.390271"/>
      <trkpt lat="43.262442" lon="-0.390233"/>
      <trkpt lat="43.262724" lon="-0.390190"/>
      <trkpt lat="43.262902" lon="-0.390162"/>
      <trkpt lat="43.263567" lon="-0.390069"/>
      <trkpt lat="43.265778" lon="-0.389752"/>
      <trkpt lat="43.267055" lon="-0.389562"/>
      <trkpt lat="43.267262" lon="-0.389529"/>
      <trkpt lat="43.267403" lon="-0.389510"/>
      <trkpt lat="43.267431" lon="-0.389506"/>
      <trkpt lat="43.270607" lon="-0.389032"/>
      <trkpt lat="43.271132" lon="-0.388956"/>
      <trkpt lat="43.271225" lon="-0.388943"/>
      <trkpt lat="43.271249" lon="-0.388939"/>
      <trkpt lat="43.271344" lon="-0.388927"/>
      <trkpt lat="43.271507" lon="-0.388904"/>
      <trkpt lat="43.271654" lon="-0.388886"/>
      <trkpt lat="43.275444" lon="-0.388352"/>
      <trkpt lat="43.275648" lon="-0.388323"/>
      <trkpt lat="43.276892" lon="-0.388148"/>
      <trkpt lat="43.277024" lon="-0.388129"/>
      <trkpt lat="43.277203" lon="-0.388103"/>
      <trkpt lat="43.277342" lon="-0.388083"/>
      <trkpt lat="43.277468" lon="-0.388065"/>
      <trkpt lat="43.277722" lon="-0.388031"/>
      <trkpt lat="43.277791" lon="-0.388024"/>
      <trkpt lat="43.278030" lon="-0.387976"/>
      <trkpt lat="43.278272" lon="-0.387989"/>
      <trkpt lat="43.278337" lon="-0.387993"/>
      <trkpt lat="43.278391" lon="-0.387937"/>
      <trkpt lat="43.278457" lon="-0.387898"/>
      <trkpt lat="43.278519" lon="-0.387877"/>
      <trkpt lat="43.278597" lon="-0.387872"/>
      <trkpt lat="43.278644" lon="-0.387880"/>
      <trkpt lat="43.278694" lon="-0.387900"/>
      <trkpt lat="43.278738" lon="-0.387933"/>
      <trkpt lat="43.278771" lon="-0.387971"/>
      <trkpt lat="43.278801" lon="-0.388019"/>
      <trkpt lat="43.278829" lon="-0.388070"/>
      <trkpt lat="43.278859" lon="-0.388159"/>
      <trkpt lat="43.278871" lon="-0.388263"/>
      <trkpt lat="43.278863" lon="-0.388361"/>
      <trkpt lat="43.278837" lon="-0.388476"/>
      <trkpt lat="43.278867" lon="-0.388714"/>
      <trkpt lat="43.278949" lon="-0.388847"/>
      <trkpt lat="43.279023" lon="-0.388931"/>
      <trkpt lat="43.279154" lon="-0.389082"/>
      <trkpt lat="43.279250" lon="-0.389148"/>
      <trkpt lat="43.279374" lon="-0.389264"/>
      <trkpt lat="43.279656" lon="-0.389599"/>
      <trkpt lat="43.280167" lon="-0.390385"/>
      <trkpt lat="43.280328" lon="-0.390608"/>
      <trkpt lat="43.280519" lon="-0.390831"/>
      <trkpt lat="43.280677" lon="-0.390995"/>
      <trkpt lat="43.280869" lon="-0.391159"/>
      <trkpt lat="43.281083" lon="-0.391323"/>
      <trkpt lat="43.281340" lon="-0.391492"/>
      <trkpt lat="43.281740" lon="-0.391774"/>
      <trkpt lat="43.282105" lon="-0.392114"/>
      <trkpt lat="43.282637" lon="-0.392708"/>
      <trkpt lat="43.283599" lon="-0.393815"/>
      <trkpt lat="43.283816" lon="-0.394130"/>
      <trkpt lat="43.284059" lon="-0.394598"/>
      <trkpt lat="43.284205" lon="-0.394954"/>
      <trkpt lat="43.284336" lon="-0.395319"/>
      <trkpt lat="43.284862" lon="-0.396906"/>
      <trkpt lat="43.284893" lon="-0.397006"/>
      <trkpt lat="43.285272" lon="-0.398138"/>
      <trkpt lat="43.285519" lon="-0.398874"/>
      <trkpt lat="43.285643" lon="-0.399141"/>
      <trkpt lat="43.285703" lon="-0.399233"/>
      <trkpt lat="43.285735" lon="-0.399282"/>
      <trkpt lat="43.285796" lon="-0.399308"/>
      <trkpt lat="43.285839" lon="-0.399381"/>
      <trkpt lat="43.285841" lon="-0.399483"/>
      <trkpt lat="43.285909" lon="-0.399683"/>
      <trkpt lat="43.286063" lon="-0.400013"/>
      <trkpt lat="43.286102" lon="-0.400044"/>
      <trkpt lat="43.286900" lon="-0.400639"/>
      <trkpt lat="43.287538" lon="-0.401245"/>
      <trkpt lat="43.287873" lon="-0.401503"/>
      <trkpt lat="43.288596" lon="-0.402010"/>
      <trkpt lat="43.288804" lon="-0.402181"/>
      <trkpt lat="43.289239" lon="-0.402629"/>
      <trkpt lat="43.290823" lon="-0.404522"/>
      <trkpt lat="43.291017" lon="-0.404608"/>
      <trkpt lat="43.291129" lon="-0.404659"/>
      <trkpt lat="43.291173" lon="-0.404678"/>
      <trkpt lat="43.291202" lon="-0.404670"/>
      <trkpt lat="43.291231" lon="-0.404671"/>
      <trkpt lat="43.291292" lon="-0.404703"/>
      <trkpt lat="43.291335" lon="-0.404771"/>
      <trkpt lat="43.291350" lon="-0.404860"/>
      <trkpt lat="43.291341" lon="-0.404920"/>
      <trkpt lat="43.291319" lon="-0.404973"/>
      <trkpt lat="43.291333" lon="-0.405145"/>
      <trkpt lat="43.291389" lon="-0.405426"/>
      <trkpt lat="43.291673" lon="-0.406160"/>
      <trkpt lat="43.291726" lon="-0.406355"/>
      <trkpt lat="43.291786" lon="-0.406636"/>
      <trkpt lat="43.291898" lon="-0.407197"/>
      <trkpt lat="43.292003" lon="-0.407662"/>
      <trkpt lat="43.292175" lon="-0.408321"/>
      <trkpt lat="43.292334" lon="-0.408911"/>
      <trkpt lat="43.292500" lon="-0.409488"/>
      <trkpt lat="43.292652" lon="-0.409894"/>
      <trkpt lat="43.293007" lon="-0.410708"/>
      <trkpt lat="43.293400" lon="-0.411503"/>
      <trkpt lat="43.293833" lon="-0.412254"/>
      <trkpt lat="43.294075" lon="-0.412741"/>
      <trkpt lat="43.294466" lon="-0.413422"/>
      <trkpt lat="43.294652" lon="-0.413697"/>
      <trkpt lat="43.294865" lon="-0.413892"/>
      <trkpt lat="43.295149" lon="-0.414089"/>
      <trkpt lat="43.295480" lon="-0.414375"/>
      <trkpt lat="43.295740" lon="-0.414585"/>
      <trkpt lat="43.295813" lon="-0.414623"/>
      <trkpt lat="43.295855" lon="-0.414646"/>
      <trkpt lat="43.295931" lon="-0.414617"/>
      <trkpt lat="43.296010" lon="-0.414627"/>
      <trkpt lat="43.296129" lon="-0.414572"/>
      <trkpt lat="43.296395" lon="-0.414285"/>
      <trkpt lat="43.296507" lon="-0.414121"/>
      <trkpt lat="43.297038" lon="-0.413336"/>
      <trkpt lat="43.297497" lon="-0.412696"/>
      <trkpt lat="43.297518" lon="-0.412667"/>
      <trkpt lat="43.297757" lon="-0.412323"/>
      <trkpt lat="43.297948" lon="-0.412048"/>
      <trkpt lat="43.298182" lon="-0.411737"/>
      <trkpt lat="43.298659" lon="-0.411278"/>
      <trkpt lat="43.299129" lon="-0.410995"/>
      <trkpt lat="43.299587" lon="-0.410831"/>
      <trkpt lat="43.299923" lon="-0.410734"/>
      <trkpt lat="43.300184" lon="-0.410623"/>
      <trkpt lat="43.300270" lon="-0.410568"/>
      <trkpt lat="43.300299" lon="-0.410546"/>
      <trkpt lat="43.300631" lon="-0.410173"/>
      <trkpt lat="43.300672" lon="-0.410080"/>
      <trkpt lat="43.300693" lon="-0.410033"/>
      <trkpt lat="43.300675" lon="-0.409931"/>
      <trkpt lat="43.300675" lon="-0.409826"/>
      <trkpt lat="43.300707" lon="-0.409684"/>
      <trkpt lat="43.300772" lon="-0.409565"/>
      <trkpt lat="43.300858" lon="-0.409487"/>
      <trkpt lat="43.300959" lon="-0.409451"/>
      <trkpt lat="43.301034" lon="-0.409454"/>
      <trkpt lat="43.301127" lon="-0.409371"/>
      <trkpt lat="43.301256" lon="-0.409143"/>
      <trkpt lat="43.301353" lon="-0.408971"/>
      <trkpt lat="43.301973" lon="-0.407383"/>
      <trkpt lat="43.302586" lon="-0.405649"/>
      <trkpt lat="43.302894" lon="-0.404841"/>
      <trkpt lat="43.303144" lon="-0.404275"/>
      <trkpt lat="43.303297" lon="-0.403934"/>
      <trkpt lat="43.303685" lon="-0.403194"/>
      <trkpt lat="43.303867" lon="-0.402810"/>
      <trkpt lat="43.304174" lon="-0.402251"/>
      <trkpt lat="43.304306" lon="-0.402084"/>
      <trkpt lat="43.304460" lon="-0.401881"/>
      <trkpt lat="43.304513" lon="-0.401814"/>
      <trkpt lat="43.304618" lon="-0.401681"/>
      <trkpt lat="43.304683" lon="-0.401607"/>
      <trkpt lat="43.304740" lon="-0.401544"/>
      <trkpt lat="43.304746" lon="-0.401455"/>
      <trkpt lat="43.304770" lon="-0.401372"/>
      <trkpt lat="43.304808" lon="-0.401302"/>
      <trkpt lat="43.304858" lon="-0.401247"/>
      <trkpt lat="43.304917" lon="-0.401213"/>
      <trkpt lat="43.304991" lon="-0.401200"/>
      <trkpt lat="43.305064" lon="-0.401220"/>
      <trkpt lat="43.305098" lon="-0.401245"/>
      <trkpt lat="43.305130" lon="-0.401268"/>
      <trkpt lat="43.305183" lon="-0.401344"/>
      <trkpt lat="43.305216" lon="-0.401439"/>
      <trkpt lat="43.305226" lon="-0.401544"/>
      <trkpt lat="43.305214" lon="-0.401638"/>
      <trkpt lat="43.305183" lon="-0.401724"/>
      <trkpt lat="43.305242" lon="-0.401926"/>
      <trkpt lat="43.305282" lon="-0.402046"/>
      <trkpt lat="43.305297" lon="-0.402089"/>
      <trkpt lat="43.305324" lon="-0.402169"/>
      <trkpt lat="43.305395" lon="-0.402300"/>
      <trkpt lat="43.305506" lon="-0.402498"/>
      <trkpt lat="43.305600" lon="-0.402665"/>
      <trkpt lat="43.305703" lon="-0.402847"/>
      <trkpt lat="43.305872" lon="-0.403167"/>
      <trkpt lat="43.306029" lon="-0.403461"/>
    </trkseg>
  </trk>
</gpx>